{"type": "FeatureCollection", "properties": {"fallback": true, "label": "Census TIGER/GENZ2024 state-clip approximation of PJM footprint (PARTIAL-STATE CAVEAT: full states used; IL/KY/NC/TN/MI only partly in PJM)", "source": "US Census Bureau cartographic boundary cb_2024_us_state_20m (TIGER/Line derived)", "source_url": "https://www2.census.gov/geo/tiger/GENZ2024/shp/cb_2024_us_state_20m.zip", "vintage": "2024", "crs_note": "source NAD83 (EPSG:4269); carried as EPSG:4326 (meter-level equivalence, negligible vs 0.25deg grid)", "states": ["Delaware", "District of Columbia", "Illinois", "Indiana", "Kentucky", "Maryland", "Michigan", "New Jersey", "North Carolina", "Ohio", "Pennsylvania", "Tennessee", "Virginia", "West Virginia"]}, "features": [{"type": "Feature", "properties": {}, "geometry": {"type": "MultiPolygon", "coordinates": [[[[-89.544434, 36.57451], [-89.479346, 36.566253], [-89.407906, 36.562345], [-89.378694, 36.622292], [-89.327319777009, 36.6239462887705], [-89.324658, 36.624032], [-89.278935, 36.577699], [-89.227319, 36.569375], [-89.199136, 36.625649], [-89.1756497723469, 36.6513192625535], [-89.165488, 36.662426], [-89.202511, 36.716618], [-89.15699, 36.755968], [-89.1559849090704, 36.7862926633714], [-89.155891, 36.789126], [-89.147674, 36.847148], [-89.120472, 36.891896], [-89.1031354483266, 36.9447609003223], [-89.098843, 36.95785], [-89.132915, 36.982057], [-89.128899, 37.017908], [-89.1666202120197, 37.0721103437999], [-89.168087, 37.074218], [-89.099047, 37.140967], [-89.058036, 37.188767], [-89.000968, 37.224401], [-88.9335100599741, 37.2275116098343], [-88.931745, 37.227593], [-88.9278935494308, 37.226353966835], [-88.835051, 37.196486], [-88.753068, 37.154701], [-88.693983, 37.141155], [-88.61144, 37.112745], [-88.5610581316174, 37.0840080816083], [-88.531576, 37.067192], [-88.4904810043425, 37.0679561064856], [-88.48380327698, 37.0680802698954], [-88.476127, 37.068223], [-88.444605, 37.098601], [-88.424776, 37.149901], [-88.471753, 37.220155], [-88.514661, 37.290948], [-88.486947, 37.339596], [-88.465861, 37.400547], [-88.418594, 37.421987], [-88.4161335687515, 37.4212865145119], [-88.358476490182, 37.4048715275665], [-88.358436, 37.40486], [-88.281667, 37.452596], [-88.157061, 37.466937], [-88.062294, 37.487837], [-88.0662484288003, 37.5041305345896], [-88.072242, 37.528826], [-88.131622, 37.572968], [-88.1324310565063, 37.5752826298727], [-88.160062, 37.654332], [-88.132341, 37.697142], [-88.059588, 37.742608], [-88.02803, 37.799224], [-87.970262, 37.781856], [-87.935861, 37.789703], [-87.903804, 37.817762], [-87.938128, 37.870651], [-87.9253933817098, 37.8995914771373], [-87.921744, 37.907885], [-87.87254, 37.920999], [-87.808013, 37.875191], [-87.723635, 37.892058], [-87.7131573360969, 37.8830423995257], [-87.681633, 37.855917], [-87.625851, 37.851919], [-87.608479, 37.898794], [-87.551277, 37.925418], [-87.486347, 37.920218], [-87.4487002885408, 37.9338545298067], [-87.418585, 37.944763], [-87.331765, 37.908253], [-87.304057452442, 37.8934325491223], [-87.270387407739, 37.87542282659], [-87.25525, 37.867326], [-87.180063, 37.841375], [-87.137502, 37.807264], [-87.105614, 37.767631], [-87.057836, 37.827457], [-87.043049, 37.875049], [-87.010315, 37.919668], [-86.9777414251102, 37.9256992083727], [-86.927747, 37.934956], [-86.875874, 37.97077], [-86.8135795707459, 37.9960671327985], [-86.810913, 37.99715], [-86.779993, 37.956522], [-86.722247, 37.892648], [-86.658374, 37.869376], [-86.6467093891411, 37.8649113991803], [-86.615215, 37.852857], [-86.599848, 37.906754], [-86.509368, 37.902887], [-86.525174, 37.968228], [-86.521825, 38.038327], [-86.4880524671283, 38.0436653088997], [-86.471903, 38.046218], [-86.434046, 38.086763], [-86.4335700794087, 38.0871478523782], [-86.387216, 38.124632], [-86.321274, 38.147418], [-86.278656, 38.098509], [-86.206439, 38.021876], [-86.095766, 38.00893], [-86.033386, 37.970382], [-85.9973516597543, 37.9912256022991], [-85.976028, 38.00356], [-85.9517264381006, 38.0149416294697], [-85.922395, 38.028679], [-85.905164, 38.11107], [-85.8959128763279, 38.1799188193363], [-85.894764, 38.188469], [-85.839664, 38.23977], [-85.816164, 38.282969], [-85.794501505519, 38.2779525587226], [-85.750962, 38.26787], [-85.683561, 38.295469], [-85.646201, 38.342916], [-85.6344441449773, 38.3783994475748], [-85.621625, 38.417089], [-85.587758, 38.450495], [-85.498866, 38.468242], [-85.474354, 38.504074], [-85.433136, 38.523914], [-85.432981047742, 38.5241121702949], [-85.4156, 38.546341], [-85.4314160707522, 38.5862856131089], [-85.43617, 38.598292], [-85.438742, 38.659319], [-85.448862, 38.713368], [-85.400481, 38.73598], [-85.340953, 38.733893], [-85.3326407337514, 38.7348167543477], [-85.275454, 38.741172], [-85.238665, 38.722494], [-85.2017606225486, 38.6974407918463], [-85.187278, 38.687609], [-85.146861, 38.695427], [-85.071928, 38.741567], [-85.0210522365665, 38.7585272930799], [-84.962535, 38.778035], [-84.856904, 38.790224], [-84.812877, 38.786087], [-84.803247, 38.850723], [-84.7987011365099, 38.8592249335163], [-84.786406, 38.88222], [-84.830472, 38.897256], [-84.8643271879881, 38.9137941412077], [-84.877762, 38.920357], [-84.832617, 38.96146], [-84.849445, 39.000923], [-84.8775702820623, 39.0312628990423], [-84.897171, 39.052407], [-84.860689, 39.07814], [-84.820157, 39.10548], [-84.750749, 39.147358], [-84.714048, 39.132659], [-84.7119293134928, 39.130678600088], [-84.677247, 39.09826], [-84.6220474364107, 39.0783346767822], [-84.607928, 39.073238], [-84.550844, 39.09936], [-84.5065187374369, 39.101766408188], [-84.493743, 39.10246], [-84.480943, 39.11676], [-84.462042, 39.12176], [-84.445242, 39.114461], [-84.432941, 39.083961], [-84.40094, 39.046362], [-84.326539, 39.027463], [-84.3212072268568, 39.0205863526894], [-84.297255, 38.989694], [-84.288164, 38.955789], [-84.232132, 38.880483], [-84.2323050454035, 38.8747078960317], [-84.233265, 38.842671], [-84.226155212983, 38.8297636689604], [-84.212904, 38.805707], [-84.135088, 38.789485], [-84.0526095475065, 38.7716067284387], [-84.051642, 38.771397], [-83.978814, 38.787104], [-83.928454, 38.774583], [-83.9043750861048, 38.7672838752678], [-83.852085, 38.751433], [-83.834015, 38.716008], [-83.78362, 38.695641], [-83.77216, 38.65815], [-83.7058575510284, 38.6380366259831], [-83.679484, 38.630036], [-83.6469615501443, 38.6418337437309], [-83.642994, 38.643273], [-83.626922, 38.679387], [-83.533339, 38.702105], [-83.440404, 38.669361], [-83.376302, 38.661473], [-83.320531, 38.622713], [-83.286514, 38.599241], [-83.2642676908446, 38.6131319856547], [-83.239515, 38.628588], [-83.172647, 38.620252], [-83.128973, 38.640231], [-83.112372, 38.671685], [-83.042338, 38.708319], [-83.0303349312311, 38.7168676766561], [-83.011816, 38.730057], [-82.943147, 38.74328], [-82.889193, 38.756076], [-82.871192, 38.718377], [-82.869592, 38.678177], [-82.851314, 38.604334], [-82.8115423846504, 38.5723695895619], [-82.800112, 38.563183], [-82.724846, 38.5576], [-82.675724, 38.515504], [-82.6641207909684, 38.5077181960708], [-82.618474, 38.477089], [-82.593673, 38.421809], [-82.597979, 38.344909], [-82.571877, 38.315781], [-82.581796, 38.248592], [-82.5846938141256, 38.2405129933697], [-82.598864, 38.201007], [-82.626182, 38.134835], [-82.549407, 38.063063], [-82.464987, 37.976859], [-82.479420123223, 37.9385625246981], [-82.487556, 37.916975], [-82.41869, 37.872375], [-82.3984648162589, 37.8430541504629], [-82.369973, 37.801749], [-82.327356, 37.762233], [-82.3206749571778, 37.7459658434594], [-82.296118, 37.686174], [-82.226111, 37.653092], [-82.141555, 37.595166], [-82.064418, 37.544516], [-81.968297, 37.537798], [-82.201745, 37.375108], [-82.309415, 37.300066], [-82.3143704529296, 37.2963062518554], [-82.355343, 37.26522], [-82.449164, 37.243908], [-82.5536395449037, 37.2014503744627], [-82.558178, 37.199606], [-82.565275702797, 37.1959011068831], [-82.726294, 37.111852], [-82.722254, 37.057948], [-82.750715, 37.024107], [-82.815748, 37.007196], [-82.869183, 36.974182], [-82.865192, 36.920923], [-82.8837542129764, 36.8971301366542], [-82.895445, 36.882145], [-83.012587, 36.847289], [-83.07559, 36.850589], [-83.114693, 36.796088], [-83.136395, 36.743088], [-83.236399, 36.726887], [-83.386099, 36.686589], [-83.436508, 36.666185], [-83.4609546474638, 36.6661310362733], [-83.527112, 36.665985], [-83.614513, 36.633983], [-83.675413, 36.600814], [-83.690714, 36.582581], [-83.894421, 36.586481], [-83.9307607839439, 36.5876942581124], [-83.9876109506828, 36.5895922860725], [-83.987842, 36.5896], [-84.2271939619983, 36.5921795123551], [-84.227332, 36.592181], [-84.2613212015047, 36.592741697267], [-84.499938, 36.596678], [-84.7784558643505, 36.6032105122159], [-84.785341, 36.603372], [-84.7853999785503, 36.6033754199356], [-84.943948, 36.612569], [-84.9748684358374, 36.6145833593172], [-85.096128, 36.622483], [-85.2762879474994, 36.6261575408034], [-85.290627, 36.62645], [-85.2958124857275, 36.6261495593675], [-85.4364042728859, 36.618003845027], [-85.488353, 36.614994], [-85.731862, 36.620429], [-85.7885565436139, 36.6217118590347], [-85.873857, 36.623642], [-85.975713174144, 36.6286377186817], [-86.081944, 36.633848], [-86.205565269856, 36.6392468703288], [-86.4114961989664, 36.6482404228482], [-86.507771, 36.652445], [-86.551292, 36.637985], [-86.5620676518653, 36.6407466739073], [-86.606394, 36.652107], [-86.7632909641085, 36.6487206745018], [-86.813037, 36.647647], [-87.0608263443929, 36.6447708848516], [-87.1150035566884, 36.6441420446512], [-87.3359790500808, 36.6415771604931], [-87.347796, 36.64144], [-87.64115, 36.638036], [-87.6941859078643, 36.6368382439437], [-87.853204, 36.633247], [-87.849567, 36.663701], [-88.011792, 36.677025], [-88.070532, 36.678118], [-88.055738, 36.630475], [-88.033802, 36.551733], [-88.050466, 36.500053], [-88.0533508007759, 36.4999962506816], [-88.127378, 36.49854], [-88.4890767387132, 36.5012837190757], [-88.51192, 36.501457], [-88.5163580599794, 36.5014641981633], [-88.8167641573481, 36.5019514318132], [-88.8271780363405, 36.5019683222569], [-88.8345890228743, 36.5019803422593], [-88.964471, 36.502191], [-89.211409, 36.50563], [-89.3451943195388, 36.5013432086369], [-89.417293, 36.499033], [-89.539232, 36.497934], [-89.571481, 36.538087], [-89.544434, 36.57451]]], [[[-76.023475, 37.289067], [-75.987122, 37.368548], [-75.976491, 37.444878], [-75.9455743189307, 37.5490406581517], [-75.941182, 37.563839], [-75.898665, 37.635425], [-75.859262, 37.703111], [-75.812155, 37.749502], [-75.818125, 37.791698], [-75.73588, 37.816561], [-75.702914, 37.849659], [-75.757694, 37.903912], [-75.669711, 37.950796], [-75.624341, 37.994211], [-75.242266, 38.027209], [-75.338623, 37.894986], [-75.380638, 37.851702], [-75.439001, 37.869335], [-75.48927, 37.832457], [-75.551898, 37.748122], [-75.591953, 37.663178], [-75.614527, 37.609296], [-75.607824, 37.560706], [-75.672877, 37.483696], [-75.6654179108751, 37.4672935154925], [-75.658379, 37.451815], [-75.720739, 37.373129], [-75.735829, 37.335426], [-75.778817, 37.297176], [-75.795164, 37.247095], [-75.817387, 37.193437], [-75.897298, 37.118037], [-75.942399, 37.089607], [-75.979608, 37.100448], [-75.998647, 37.188739], [-76.023475, 37.289067]], [[-83.614513, 36.633983], [-83.527112, 36.665985], [-83.4609546474638, 36.6661310362733], [-83.436508, 36.666185], [-83.386099, 36.686589], [-83.236399, 36.726887], [-83.136395, 36.743088], [-83.114693, 36.796088], [-83.07559, 36.850589], [-83.012587, 36.847289], [-82.895445, 36.882145], [-82.8837542129764, 36.8971301366542], [-82.865192, 36.920923], [-82.869183, 36.974182], [-82.815748, 37.007196], [-82.750715, 37.024107], [-82.722254, 37.057948], [-82.726294, 37.111852], [-82.565275702797, 37.1959011068831], [-82.558178, 37.199606], [-82.5536395449037, 37.2014503744627], [-82.449164, 37.243908], [-82.355343, 37.26522], [-82.3143704529296, 37.2963062518554], [-82.309415, 37.300066], [-82.201745, 37.375108], [-81.968297, 37.537798], [-81.932279, 37.511961], [-81.984891, 37.454315], [-81.93695, 37.41992], [-81.933601, 37.389217], [-81.896001, 37.331967], [-81.849949, 37.285227], [-81.774747, 37.274847], [-81.744003, 37.242528], [-81.7390550304855, 37.2394971038728], [-81.678603, 37.202467], [-81.560625, 37.206663], [-81.53307, 37.223414], [-81.483559, 37.250604], [-81.427946, 37.271015], [-81.362156, 37.337687], [-81.225104, 37.234874], [-81.112596, 37.278497], [-80.996013, 37.299545], [-80.9808452568928, 37.3008528161905], [-80.919259, 37.306163], [-80.835479, 37.334824], [-80.883248, 37.383933], [-80.865148, 37.419927], [-80.8581481168198, 37.4210069067215], [-80.8573585701898, 37.421128713999], [-80.836446, 37.424355], [-80.770082, 37.372363], [-80.664971, 37.414215], [-80.544836, 37.474695], [-80.4695688905042, 37.4290254659927], [-80.46482, 37.426144], [-80.39988, 37.462314], [-80.291644, 37.536505], [-80.28244, 37.585481], [-80.223386, 37.623185], [-80.2243032443768, 37.6239913711709], [-80.292258, 37.683732], [-80.290033810255, 37.686136458971], [-80.258143, 37.720612], [-80.218616, 37.783291], [-80.199633, 37.827507], [-80.131931, 37.8895], [-80.0558115945897, 37.9518782200979], [-80.036236, 37.96792], [-79.971231, 38.044326], [-79.9619822726354, 38.0636070994933], [-79.938952, 38.111619], [-79.916174, 38.184386], [-79.850324, 38.233329], [-79.7970135368069, 38.2672681211392], [-79.787542, 38.273298], [-79.804093, 38.313922], [-79.7346, 38.356728], [-79.689675, 38.431439], [-79.691088, 38.463744], [-79.669128, 38.510883], [-79.649075, 38.591515], [-79.54257, 38.553217], [-79.476638, 38.457228], [-79.370302, 38.427244], [-79.3112960655144, 38.418454601455], [-79.297758, 38.416438], [-79.23162, 38.474041], [-79.2284230027078, 38.4797415574873], [-79.201459, 38.527821], [-79.154357, 38.606518], [-79.092955, 38.659517], [-79.088055, 38.690115], [-79.057253, 38.761413], [-79.023053, 38.798613], [-78.999014, 38.840074], [-78.869276, 38.762991], [-78.821167, 38.830982], [-78.772793, 38.893742], [-78.681617, 38.92584], [-78.620453, 38.982601], [-78.561711, 39.009007], [-78.532266186557, 39.0527645240444], [-78.508132, 39.08863], [-78.413943, 39.158415], [-78.428697, 39.187217], [-78.40498, 39.238006], [-78.401813, 39.276754], [-78.34048, 39.353492], [-78.337133, 39.409169], [-78.347087, 39.466012], [-78.2291295342185, 39.3906638872041], [-78.18737, 39.363989], [-78.0331852353666, 39.2646248420052], [-78.0331834609342, 39.2646236984747], [-78.032841, 39.264403], [-77.8283018332673, 39.1324224548325], [-77.828157, 39.132329], [-77.809125, 39.168567], [-77.778068, 39.229305], [-77.719519, 39.321314], [-77.6776957620787, 39.317940817088], [-77.66613, 39.317008], [-77.588235, 39.301955], [-77.553114, 39.279268], [-77.496606, 39.251045], [-77.4600656264978, 39.2188429438594], [-77.459883, 39.218682], [-77.485971, 39.185665], [-77.521222, 39.161057], [-77.519929, 39.120925], [-77.481279, 39.105658], [-77.462617, 39.076248], [-77.359702, 39.062004], [-77.3429916044968, 39.0585948705951], [-77.3300377059541, 39.0559521134909], [-77.310705, 39.052008], [-77.248403, 39.026909], [-77.249803, 38.985909], [-77.202502, 38.96791], [-77.1800356321076, 38.9664229861505], [-77.146601, 38.96421], [-77.1197891567342, 38.9343765552932], [-77.119759, 38.934343], [-77.0902, 38.904211], [-77.039099, 38.868112], [-77.0390663567647, 38.8412718895186], [-77.039006, 38.791645], [-77.0392398850823, 38.7853363256236], [-77.0406725707781, 38.7466919304829], [-77.040998, 38.737914], [-77.053199, 38.709915], [-77.079499, 38.709515], [-77.0857847651564, 38.7052812818324], [-77.132501, 38.673816], [-77.1302, 38.635017], [-77.2241458553015, 38.6351782749009], [-77.246704, 38.635217], [-77.295274, 38.562125], [-77.3126042841192, 38.5019278005841], [-77.322622, 38.467131], [-77.317288, 38.383576], [-77.2843464997922, 38.3516368165143], [-77.265295, 38.333165], [-77.162692, 38.345994], [-77.093713, 38.352801], [-77.048137, 38.360145], [-77.020947, 38.329273], [-77.026304, 38.302685], [-76.9967912592049, 38.2791478339799], [-76.990255, 38.273935], [-76.957796, 38.243183], [-76.962311, 38.214075], [-76.910832, 38.197073], [-76.838795, 38.163476], [-76.749685, 38.162114], [-76.684892, 38.156497], [-76.613939, 38.148587], [-76.600937, 38.110084], [-76.535919, 38.069532], [-76.5106939613177, 38.0394889278142], [-76.491998, 38.017222], [-76.427487, 37.977038], [-76.316952, 37.934929], [-76.236725, 37.889174], [-76.251358, 37.833072], [-76.310307, 37.794849], [-76.312858, 37.720338], [-76.3252991496906, 37.6825738854367], [-76.32912, 37.670976], [-76.279447, 37.618225], [-76.2888778367019, 37.587359934104], [-76.29796, 37.557636], [-76.2894927971781, 37.5360752880088], [-76.273488, 37.495321], [-76.250454, 37.421886], [-76.24846, 37.375135], [-76.275552, 37.309964], [-76.366751, 37.374495], [-76.393958, 37.39594], [-76.4029458753529, 37.3926000017912], [-76.437525, 37.37975], [-76.38777, 37.30767], [-76.36229, 37.270226], [-76.3769368097175, 37.2494917623633], [-76.394132, 37.22515], [-76.3471899289676, 37.1896444936553], [-76.3431, 37.186551], [-76.311088, 37.138495], [-76.293126918301, 37.1141637008803], [-76.271262, 37.084544], [-76.304272, 37.001378], [-76.2809720508166, 36.977743727668], [-76.267962, 36.964547], [-76.189959, 36.931447], [-76.1769475851987, 36.928538680155], [-76.087955, 36.908647], [-76.043054, 36.927547], [-75.996252, 36.922047], [-75.961589, 36.799995], [-75.921748, 36.692051], [-75.890946, 36.630753], [-75.867044, 36.550754], [-76.02675, 36.550553], [-76.1223499470101, 36.5505523325541], [-76.313215, 36.550551], [-76.3133029682603, 36.550551089807], [-76.4914825754723, 36.5507329938364], [-76.5419658657183, 36.5507845323601], [-76.738329, 36.550985], [-76.9157318023497, 36.5460897693389], [-76.9160376328562, 36.5460813302903], [-76.917318, 36.546046], [-77.0716192313025, 36.5461127292585], [-77.1643226037182, 36.5461528198479], [-77.190175, 36.546164], [-77.2989182850567, 36.546038840401], [-77.749706, 36.54552], [-77.7671039699267, 36.5454424093355], [-77.8997741360467, 36.5448507330424], [-78.0462083043603, 36.5441976726866], [-78.132911, 36.543811], [-78.323718509559, 36.5424213915586], [-78.4572778962559, 36.5414487083995], [-78.509965, 36.541065], [-78.7341228011172, 36.5416087348408], [-78.7962739551405, 36.5417594935816], [-78.942009, 36.542113], [-79.1383358988714, 36.5416382700559], [-79.2184554959223, 36.5414445361761], [-79.3431159193695, 36.5411430999685], [-79.4700566739243, 36.5408361497866], [-79.510647, 36.540738], [-79.5136476625086, 36.5407482050707], [-79.714850811052, 36.5414324847413], [-80.027269, 36.542495], [-80.0273389151412, 36.5424953856142], [-80.0534550433501, 36.5426394280866], [-80.295243, 36.543973], [-80.431605, 36.550219], [-80.4403427430004, 36.5506059569159], [-80.6121887881246, 36.5582162763804], [-80.704831, 36.562319], [-80.840213077246, 36.5619284516373], [-80.901661118921, 36.561751187168], [-80.901726, 36.561751], [-81.061866, 36.56702], [-81.176712, 36.571926], [-81.3532212246022, 36.5762382311564], [-81.499831, 36.57982], [-81.677535, 36.588117], [-81.6469, 36.611918], [-81.8267341480526, 36.6147191041614], [-81.922644, 36.616213], [-81.934144, 36.594213], [-82.1455732705145, 36.5945603308341], [-82.173982, 36.594607], [-82.2433850052002, 36.5948761876654], [-82.2941364201291, 36.5950730329585], [-82.487238, 36.595822], [-82.609181949399, 36.5950896860685], [-82.830433, 36.593761], [-82.9844584955724, 36.59528996905], [-83.2763, 36.598187], [-83.4720935738096, 36.5994757320593], [-83.675413, 36.600814], [-83.614513, 36.633983]]], [[[-90.300697, 35.028793], [-90.265296, 35.040293], [-90.197146, 35.050731], [-90.181387, 35.091401], [-90.160058, 35.12883], [-90.09061, 35.118287], [-90.099777, 35.164474], [-90.093285, 35.203282], [-90.097947, 35.249983], [-90.166594, 35.274588], [-90.121864, 35.304535], [-90.087903, 35.36327], [-90.112504, 35.410153], [-90.070549, 35.423291], [-90.045306, 35.415435], [-90.022064, 35.457375], [-90.045805, 35.496533], [-90.037615, 35.550329], [-89.958498, 35.541703], [-89.944754, 35.560308], [-89.9325, 35.607865], [-89.876548, 35.626653], [-89.898916, 35.650904], [-89.956589, 35.695486], [-89.915491, 35.754917], [-89.863874, 35.747592], [-89.797053, 35.782648], [-89.723426, 35.809382], [-89.729517, 35.847632], [-89.722634, 35.873718], [-89.64727, 35.89492], [-89.6491186188564, 35.9047155762998], [-89.652279, 35.921462], [-89.686924, 35.947716], [-89.733095, 36.000608], [-89.692437, 36.020507], [-89.680029, 36.082494], [-89.64302, 36.10362], [-89.592102, 36.135637], [-89.623804, 36.183128], [-89.6276414416754, 36.185460316606], [-89.69263, 36.224959], [-89.678046, 36.248284], [-89.602374, 36.238106], [-89.554289, 36.277751], [-89.611819, 36.309088], [-89.600544, 36.342985], [-89.5450313339691, 36.344271398663], [-89.522695, 36.344789], [-89.51038, 36.378356], [-89.542337, 36.420103], [-89.521021, 36.461934], [-89.539232, 36.497934], [-89.417293, 36.499033], [-89.3451943195388, 36.5013432086369], [-89.211409, 36.50563], [-88.964471, 36.502191], [-88.8345890228743, 36.5019803422593], [-88.8271780363405, 36.5019683222569], [-88.8167641573481, 36.5019514318132], [-88.5163580599794, 36.5014641981633], [-88.51192, 36.501457], [-88.4890767387132, 36.5012837190757], [-88.127378, 36.49854], [-88.0533508007759, 36.4999962506816], [-88.050466, 36.500053], [-88.033802, 36.551733], [-88.055738, 36.630475], [-88.070532, 36.678118], [-88.011792, 36.677025], [-87.849567, 36.663701], [-87.853204, 36.633247], [-87.6941859078643, 36.6368382439437], [-87.64115, 36.638036], [-87.347796, 36.64144], [-87.3359790500808, 36.6415771604931], [-87.1150035566884, 36.6441420446512], [-87.0608263443929, 36.6447708848516], [-86.813037, 36.647647], [-86.7632909641085, 36.6487206745018], [-86.606394, 36.652107], [-86.5620676518653, 36.6407466739073], [-86.551292, 36.637985], [-86.507771, 36.652445], [-86.4114961989664, 36.6482404228482], [-86.205565269856, 36.6392468703288], [-86.081944, 36.633848], [-85.975713174144, 36.6286377186817], [-85.873857, 36.623642], [-85.7885565436139, 36.6217118590347], [-85.731862, 36.620429], [-85.488353, 36.614994], [-85.4364042728859, 36.618003845027], [-85.2958124857275, 36.6261495593675], [-85.290627, 36.62645], [-85.2762879474994, 36.6261575408034], [-85.096128, 36.622483], [-84.9748684358374, 36.6145833593172], [-84.943948, 36.612569], [-84.7853999785503, 36.6033754199356], [-84.785341, 36.603372], [-84.7784558643505, 36.6032105122159], [-84.499938, 36.596678], [-84.2613212015047, 36.592741697267], [-84.227332, 36.592181], [-84.2271939619983, 36.5921795123551], [-83.987842, 36.5896], [-83.9876109506828, 36.5895922860725], [-83.9307607839439, 36.5876942581124], [-83.894421, 36.586481], [-83.690714, 36.582581], [-83.675413, 36.600814], [-83.4720935738096, 36.5994757320593], [-83.2763, 36.598187], [-82.9844584955724, 36.59528996905], [-82.830433, 36.593761], [-82.609181949399, 36.5950896860685], [-82.487238, 36.595822], [-82.2941364201291, 36.5950730329585], [-82.2433850052002, 36.5948761876654], [-82.173982, 36.594607], [-82.1455732705145, 36.5945603308341], [-81.934144, 36.594213], [-81.922644, 36.616213], [-81.8267341480526, 36.6147191041614], [-81.6469, 36.611918], [-81.677535, 36.588117], [-81.699962, 36.536829], [-81.695311, 36.467912], [-81.734312, 36.413342], [-81.7253728028917, 36.3897385587113], [-81.705966, 36.338496], [-81.768977, 36.341042], [-81.833202, 36.347339], [-81.908137, 36.302013], [-81.9184444729048, 36.2873579173821], [-81.9343692444926, 36.2647162043798], [-81.960101, 36.228131], [-82.02874, 36.124322], [-82.080143, 36.10572], [-82.0811489171324, 36.1056921143326], [-82.127146, 36.104417], [-82.140847, 36.136216], [-82.211251, 36.159012], [-82.2202530102866, 36.1538200398431], [-82.26569, 36.127614], [-82.297655, 36.13351], [-82.346857, 36.115209], [-82.409458, 36.083409], [-82.4169375946732, 36.0729700107085], [-82.464558, 36.006508], [-82.5080076597225, 35.9820132054415], [-82.557874, 35.953901], [-82.610885, 35.974442], [-82.595525, 36.026012], [-82.6057036107936, 36.0371988635619], [-82.628365, 36.062105], [-82.725065, 36.018204], [-82.779397, 35.992511], [-82.787465, 35.952163], [-82.81613, 35.923986], [-82.860724, 35.94743], [-82.8937514184314, 35.9338572697089], [-82.910608, 35.92693], [-82.899718, 35.874602], [-82.937437, 35.82732], [-82.9666497428986, 35.795445979574], [-82.978414, 35.78261], [-83.04853, 35.787706], [-83.097193, 35.776067], [-83.161537, 35.763363], [-83.198267, 35.725494], [-83.255351, 35.71623], [-83.2561415523036, 35.7151240626578], [-83.26474416829, 35.7030894961701], [-83.297154, 35.65775], [-83.347262, 35.660474], [-83.421576, 35.611186], [-83.452431, 35.602918], [-83.498335, 35.562981], [-83.587827, 35.566963], [-83.653159, 35.568309], [-83.6629119015893, 35.5677997932083], [-83.771736, 35.562118], [-83.848502, 35.519259], [-83.916801, 35.473612], [-83.9532313801504, 35.4600208895767], [-83.9589178345639, 35.4578994395799], [-83.973171, 35.452582], [-84.021782, 35.407418], [-84.007586, 35.371661], [-84.038081, 35.348363], [-84.02351, 35.295783], [-84.0291044137725, 35.2921237764939], [-84.097508, 35.247382], [-84.178516, 35.240679], [-84.223718, 35.269078], [-84.28322, 35.226577], [-84.2865983787409, 35.2057582184959], [-84.321869, 34.988408], [-84.509052, 34.988033], [-84.621483, 34.988329], [-84.727434, 34.98802], [-84.7758376712973, 34.9879372061493], [-84.8104774668864, 34.9878779552292], [-84.861314, 34.987791], [-84.9769738065923, 34.9872198373549], [-84.9798540252315, 34.9872056139756], [-85.045183, 34.986883], [-85.2650550217158, 34.9850776447417], [-85.277556, 34.984975], [-85.3639190289311, 34.9833765631405], [-85.384967, 34.982987], [-85.4743388431343, 34.9836733267911], [-85.605165, 34.984678], [-85.8730286155715, 34.9871134376052], [-86.311274, 34.991098], [-86.3187607654651, 34.9910785804428], [-86.467798, 34.990692], [-86.783628017169, 34.991924921992], [-86.783648, 34.991925], [-86.8362863159495, 34.992803004217], [-87.2107585799823, 34.9990491809997], [-87.216683, 34.999148], [-87.2240536418757, 34.9992307419721], [-87.424908998267, 35.0014855209409], [-87.6060978676533, 35.0035195262043], [-87.625025, 35.003732], [-87.851886, 35.005656], [-87.9849160436989, 35.0059101243258], [-88.000032, 35.005939], [-88.202959, 35.008028], [-88.200064, 34.995634], [-88.258111, 34.995463], [-88.3635302685392, 34.9957467517971], [-88.3804925115221, 34.9957924082221], [-88.469877, 34.996033], [-88.786612, 34.995252], [-88.823050501632, 34.995207045695], [-89.0171270115524, 34.9949676128363], [-89.02654, 34.994956], [-89.198287901495, 34.9944505301151], [-89.3526793918484, 34.9939961417459], [-89.434954, 34.993754], [-89.644051831619, 34.994066863428], [-89.7066076930667, 34.9941604628742], [-89.724322525596, 34.9941869687599], [-89.795187, 34.994293], [-90.309297, 34.995694], [-90.300697, 35.028793]]], [[[-91.5062615151283, 40.2001550699717], [-91.4969574903395, 40.2487038763728], [-91.492891, 40.269923], [-91.469656, 40.322409], [-91.419422, 40.378264], [-91.372921, 40.399108], [-91.379907, 40.45211], [-91.367876, 40.510479], [-91.394475, 40.534543], [-91.374252, 40.58259], [-91.339719, 40.613488], [-91.247851, 40.63839], [-91.18698, 40.637297], [-91.1854606087043, 40.6381118126235], [-91.12082, 40.672777], [-91.1182229383975, 40.6995346508191], [-91.115735, 40.725168], [-91.091703, 40.779708], [-91.092993, 40.821079], [-91.044653, 40.868356], [-90.985462, 40.912141], [-90.952233, 40.954047], [-90.945324, 41.019279], [-90.9518941426813, 41.0698727358664], [-90.9522654164822, 41.07273174967], [-90.957246, 41.111085], [-90.997906, 41.162564], [-91.041536, 41.166138], [-91.081445, 41.214429], [-91.114186, 41.250029], [-91.0744154980196, 41.3336315690407], [-91.0740876236741, 41.3343208019205], [-91.071552, 41.339651], [-91.065058, 41.369101], [-91.027787, 41.423603], [-90.966662, 41.430051], [-90.924343, 41.42286], [-90.867282, 41.448215], [-90.786282, 41.452888], [-90.701159, 41.454743], [-90.618537, 41.485032], [-90.571136, 41.516332], [-90.513134, 41.519533], [-90.461432, 41.523533], [-90.41583, 41.562933], [-90.364128, 41.579633], [-90.339528, 41.598633], [-90.336729, 41.664532], [-90.314687, 41.69483], [-90.3118568504162, 41.7285328921536], [-90.310708, 41.742214], [-90.248631, 41.779805], [-90.2423682473972, 41.7827687259846], [-90.180643, 41.811979], [-90.181401, 41.844647], [-90.165065, 41.883777], [-90.1581530337095, 41.9298432273761], [-90.156902, 41.938181], [-90.140613, 41.995999], [-90.1596824511227, 42.0330872575859], [-90.163446, 42.040407], [-90.161159, 42.106372], [-90.207421, 42.149109], [-90.26908, 42.1745], [-90.3151462239686, 42.1937168744807], [-90.338169, 42.203321], [-90.400653, 42.239293], [-90.430884, 42.27823], [-90.417125, 42.319943], [-90.44632, 42.357041], [-90.4843456727163, 42.3815977781919], [-90.517516, 42.403019], [-90.565248, 42.438742], [-90.590416, 42.447493], [-90.646727, 42.471904], [-90.642843, 42.508481], [-90.437011, 42.507147], [-90.4263769607361, 42.5071777352237], [-90.22319, 42.507765], [-89.926484, 42.505787], [-89.9264658538311, 42.5057868210378], [-89.8375948863256, 42.5049103527915], [-89.493216, 42.501514], [-89.4014168110406, 42.5004419310737], [-89.3657986076635, 42.5000259669515], [-89.0674411431083, 42.4965416249841], [-89.042898, 42.496255], [-88.940384860378, 42.4954398274712], [-88.7765924457953, 42.4941373692957], [-88.7074208350474, 42.4935873247155], [-88.70738, 42.493587], [-88.506912, 42.494883], [-88.4716234041103, 42.4950095469695], [-88.304692, 42.4956081727515], [-88.2169, 42.495923], [-88.1993830245505, 42.4957546124404], [-87.800477, 42.49192], [-87.80337, 42.420621], [-87.820858, 42.361584], [-87.834769, 42.301522], [-87.833377771567, 42.2977737051545], [-87.8006461090443, 42.209586949469], [-87.800066, 42.208024], [-87.7592491186898, 42.1522561642711], [-87.741662, 42.128227], [-87.7413552334043, 42.1279554347716], [-87.690656561605, 42.0830744191043], [-87.6892756203283, 42.0818519403908], [-87.682359, 42.075729], [-87.668982, 42.029142], [-87.642232811764, 41.9547765180824], [-87.624052, 41.904232], [-87.6168374404579, 41.897547444662], [-87.612291, 41.893335], [-87.613556, 41.88448], [-87.616293, 41.870929], [-87.6114664819065, 41.8528050472118], [-87.60945, 41.845233], [-87.5920173104579, 41.8169432782755], [-87.560646, 41.766034], [-87.530745, 41.748235], [-87.5260563516369, 41.7310217535488], [-87.524141, 41.72399], [-87.524044, 41.708335], [-87.52494, 41.529735], [-87.5254093533475, 41.4702806660617], [-87.526768, 41.298177], [-87.5267678862275, 41.2980516024792], [-87.5266481580824, 41.1660899445116], [-87.52652, 41.024837], [-87.526463234368, 41.0103365222041], [-87.526014, 40.895582], [-87.5261364904237, 40.7368850814229], [-87.526292, 40.535409], [-87.5268757732538, 40.4912244096904], [-87.5270652633992, 40.4768822924615], [-87.530054, 40.250671], [-87.531021612428, 40.1480353967457], [-87.5318629009431, 40.0587990953503], [-87.532308, 40.011587], [-87.5324544938843, 39.8829991187823], [-87.532703, 39.664868], [-87.532385282791, 39.6073049442215], [-87.5316666819743, 39.4771109927429], [-87.531624, 39.469378], [-87.531646, 39.347888], [-87.578331, 39.340343], [-87.600397, 39.312904], [-87.594745845406, 39.259383616483], [-87.593486, 39.247452], [-87.577029, 39.211123], [-87.640435, 39.166727], [-87.6383674685664, 39.1578118692748], [-87.625379, 39.101806], [-87.572588, 39.057286], [-87.579117, 39.001607], [-87.529496, 38.971925], [-87.527645, 38.907688], [-87.5287176636979, 38.9059437862892], [-87.54737, 38.875614], [-87.5352570508085, 38.8524914649674], [-87.521681, 38.826576], [-87.498948, 38.757774], [-87.545538, 38.677613], [-87.62012, 38.639489], [-87.637752, 38.588512], [-87.6483567630745, 38.5666287160576], [-87.660732, 38.541092], [-87.654166, 38.511911], [-87.714047, 38.47988], [-87.74104, 38.435576], [-87.7511059451205, 38.4188492084548], [-87.779996, 38.370842], [-87.831972, 38.307241], [-87.908542, 38.268581], [-87.968968, 38.237389], [-87.9702008408039, 38.2302710583858], [-87.975819, 38.197834], [-87.927468, 38.151946], [-87.96221, 38.100054], [-87.98877, 38.055591], [-88.030884, 38.030713], [-88.016311, 37.961574], [-88.040861, 37.891767], [-88.0594711307875, 37.8666875964907], [-88.067364, 37.856051], [-88.02803, 37.799224], [-88.059588, 37.742608], [-88.132341, 37.697142], [-88.160062, 37.654332], [-88.1324310565063, 37.5752826298727], [-88.131622, 37.572968], [-88.072242, 37.528826], [-88.0662484288003, 37.5041305345896], [-88.062294, 37.487837], [-88.157061, 37.466937], [-88.281667, 37.452596], [-88.358436, 37.40486], [-88.358476490182, 37.4048715275665], [-88.4161335687515, 37.4212865145119], [-88.418594, 37.421987], [-88.465861, 37.400547], [-88.486947, 37.339596], [-88.514661, 37.290948], [-88.471753, 37.220155], [-88.424776, 37.149901], [-88.444605, 37.098601], [-88.476127, 37.068223], [-88.48380327698, 37.0680802698954], [-88.4904810043425, 37.0679561064856], [-88.531576, 37.067192], [-88.5610581316174, 37.0840080816083], [-88.61144, 37.112745], [-88.693983, 37.141155], [-88.753068, 37.154701], [-88.835051, 37.196486], [-88.9278935494308, 37.226353966835], [-88.931745, 37.227593], [-88.9335100599741, 37.2275116098343], [-89.000968, 37.224401], [-89.058036, 37.188767], [-89.099047, 37.140967], [-89.168087, 37.074218], [-89.1666202120197, 37.0721103437999], [-89.128899, 37.017908], [-89.132915, 36.982057], [-89.195039, 36.989768], [-89.257608, 37.015496], [-89.3081469138122, 37.0289484973829], [-89.359456, 37.042606], [-89.384175, 37.103267], [-89.456105, 37.18812], [-89.470525, 37.253357], [-89.482889284644, 37.2609507184141], [-89.517032, 37.28192], [-89.49516, 37.324795], [-89.4744347243599, 37.334500215676], [-89.428185, 37.356158], [-89.42594, 37.407471], [-89.471201, 37.466473], [-89.5124, 37.52981], [-89.5017910494998, 37.5588957193232], [-89.4977459260392, 37.5699859139282], [-89.494051, 37.580116], [-89.506563, 37.62505], [-89.521948, 37.696475], [-89.591289, 37.723599], [-89.667993, 37.759484], [-89.6872324838884, 37.7964280387079], [-89.696559, 37.814337], [-89.782035, 37.855092], [-89.851048, 37.90398], [-89.923185, 37.870672], [-89.933095790915, 37.8800990582524], [-89.974221, 37.919217], [-89.95491, 37.966647], [-90.008353, 37.970179], [-90.080959, 38.015428], [-90.126006, 38.05057], [-90.2038911808417, 38.0873651230282], [-90.218708, 38.094365], [-90.252484, 38.127571], [-90.2527463239757, 38.1277738262293], [-90.322353, 38.181593], [-90.363926, 38.236355], [-90.372519, 38.323354], [-90.349743, 38.377609], [-90.3402442817043, 38.3870946226363], [-90.288815, 38.438453], [-90.271314, 38.496052], [-90.2610973860555, 38.518263021789], [-90.2552985826054, 38.5308696789927], [-90.248913, 38.544752], [-90.18451, 38.611551], [-90.18111, 38.65955], [-90.1813411498458, 38.6600090209705], [-90.19521, 38.68755], [-90.20991, 38.72605], [-90.1667566245041, 38.7722766188072], [-90.166409, 38.772649], [-90.117707, 38.805748], [-90.113327, 38.849306], [-90.1912067304162, 38.8902755743579], [-90.230336, 38.91086], [-90.2764739288339, 38.9193183391288], [-90.298711, 38.923395], [-90.395816, 38.960037], [-90.4509699408919, 38.9613950033245], [-90.467784, 38.961809], [-90.500117, 38.910408], [-90.555693, 38.870785], [-90.595354, 38.87505], [-90.657254, 38.92027], [-90.6615829068768, 38.9347033077532], [-90.676397, 38.984096], [-90.713629, 39.053977], [-90.681086, 39.10059], [-90.707902, 39.15086], [-90.7232836234127, 39.2241029700576], [-90.72996, 39.255894], [-90.840106, 39.340438], [-90.9352871462396, 39.3994805728603], [-90.937419, 39.400803], [-91.03827, 39.448436], [-91.064305, 39.494643], [-91.100307, 39.538695], [-91.148275, 39.545798], [-91.174232, 39.591975], [-91.1828755008197, 39.5982331157954], [-91.27614, 39.665759], [-91.3057603349652, 39.6862154700779], [-91.367753, 39.729029], [-91.3646166033233, 39.7587182263223], [-91.361571, 39.787548], [-91.397853, 39.821122], [-91.436051, 39.84551], [-91.428956, 39.907729], [-91.4368432685991, 39.9452434636785], [-91.43709, 39.946417], [-91.484064, 40.019332], [-91.497663, 40.078257], [-91.511956, 40.170441], [-91.5062615151283, 40.2001550699717]]], [[[-76.046213, 38.025533], [-76.007337, 38.036706], [-75.980089, 38.004891], [-75.984648, 37.938121], [-76.04653, 37.953586], [-76.046213, 38.025533]], [[-79.484372, 39.3443], [-79.482366, 39.531689], [-79.476662, 39.721078], [-79.3924584050224, 39.7214393586401], [-79.045576, 39.722928], [-78.9284161298889, 39.7229985874409], [-78.8082995296216, 39.7230709562769], [-78.723578, 39.723122], [-78.380477064564, 39.72270413884], [-78.3428335185744, 39.7226582929265], [-78.342593, 39.722658], [-78.0989706961667, 39.7224661944281], [-78.075861, 39.722448], [-77.768644, 39.721538], [-77.469274, 39.720229], [-77.4691450036804, 39.72022900225], [-77.4591384979573, 39.7202291767892], [-77.23995, 39.720233], [-77.2170237552374, 39.7202172483854], [-76.9993180263332, 39.7200676723526], [-76.991062, 39.720062], [-76.7870971997576, 39.7210481461113], [-76.715771, 39.721393], [-76.6976581403161, 39.7214011168578], [-76.5694491257313, 39.7214585707527], [-76.41898, 39.721526], [-76.2396837411146, 39.7216419899246], [-76.233485, 39.721646], [-76.2332793471166, 39.7216462556279], [-76.1356974269902, 39.7217675506067], [-75.788596, 39.722199], [-75.7669046067092, 39.3776515935512], [-75.766895, 39.377499], [-75.7604414164505, 39.2967896211001], [-75.7564352155685, 39.2466875371253], [-75.7481548142541, 39.1431317309597], [-75.7231026933327, 38.8298265565277], [-75.707555026429, 38.6353853550599], [-75.707551, 38.635335], [-75.701777515245, 38.5607669290786], [-75.700382, 38.542743], [-75.693721, 38.460128], [-75.479283, 38.453698], [-75.3412873203482, 38.4524365259555], [-75.185455, 38.451012], [-75.048939, 38.451263], [-75.085518, 38.32427], [-75.102947, 38.311525], [-75.143229, 38.220475], [-75.177394, 38.130014], [-75.193796, 38.096013], [-75.242266, 38.027209], [-75.624341, 37.994211], [-75.669711, 37.950796], [-75.722662, 37.97131], [-75.783815, 37.972594], [-75.860727, 37.91831], [-75.892686, 37.916848], [-75.898956, 37.974514], [-75.857507, 38.038778], [-75.858881, 38.060135], [-75.86381, 38.100968], [-75.937089, 38.124209], [-75.942375, 38.187066], [-75.864104, 38.200858], [-75.8754473114647, 38.219709301961], [-75.888513, 38.241423], [-75.9237660824283, 38.246285277002], [-75.9445, 38.249145], [-76.038935, 38.254932], [-76.031988, 38.18742], [-76.011916, 38.122214], [-76.005904, 38.07717], [-76.048692, 38.086728], [-76.095548, 38.125123], [-76.088639, 38.192649], [-76.135513, 38.232185], [-76.217613, 38.305683], [-76.257667, 38.324855], [-76.25, 38.362304], [-76.280551, 38.403143], [-76.33636, 38.492235], [-76.277461, 38.541851], [-76.290043, 38.569158], [-76.279589, 38.60952], [-76.231187, 38.61401], [-76.203065, 38.610741], [-76.165435, 38.6102], [-76.1701618745873, 38.6408420471501], [-76.175159, 38.673236], [-76.200334, 38.670774], [-76.238725, 38.712845], [-76.275015, 38.712714], [-76.322418, 38.679304], [-76.347998, 38.686234], [-76.340543, 38.730338], [-76.39035, 38.757004], [-76.379739, 38.788314], [-76.310081, 38.796846], [-76.271575, 38.851771], [-76.219328, 38.812371], [-76.19109, 38.82966], [-76.196868759948, 38.8557419634208], [-76.205063, 38.892726], [-76.203638, 38.928382], [-76.250868, 38.92825], [-76.317947, 38.911312], [-76.334019, 38.860238], [-76.376202, 38.850461], [-76.361727, 38.939175], [-76.322296, 39.006375], [-76.301847, 39.039651], [-76.2650366404087, 39.0285509553488], [-76.231765, 39.018518], [-76.233457, 39.091385], [-76.246481, 39.119588], [-76.278527, 39.145764], [-76.243166, 39.213362], [-76.211253, 39.269812], [-76.177704, 39.298701], [-76.159673, 39.335909], [-76.110527, 39.372257], [-76.0614988219557, 39.3877481141151], [-76.040962, 39.394237], [-76.00688, 39.414527], [-76.012312, 39.453115], [-76.0376462883158, 39.4526423823093], [-76.060931, 39.452208], [-76.146373, 39.40531], [-76.224161, 39.35278], [-76.296609, 39.301137], [-76.3254183419569, 39.2729050860827], [-76.349994, 39.248822], [-76.3843466278042, 39.2359006117102], [-76.395509, 39.231702], [-76.425281, 39.205708], [-76.463483, 39.205908], [-76.498384, 39.204808], [-76.5040085909181, 39.199286249126], [-76.525785, 39.177908], [-76.428681, 39.131709], [-76.42186, 39.081442], [-76.420394, 39.04207], [-76.39408, 39.011311], [-76.448981, 38.982811], [-76.471281, 38.956512], [-76.45028, 38.941113], [-76.46938, 38.907613], [-76.4739761636555, 38.9026933786299], [-76.49068, 38.884814], [-76.516944, 38.851157], [-76.489878, 38.838715], [-76.526979, 38.787016], [-76.558743, 38.756352], [-76.526655, 38.72443], [-76.5270925473942, 38.7127503012383], [-76.528923, 38.663889], [-76.511278, 38.615745], [-76.517506, 38.539149], [-76.492699, 38.482849], [-76.450937, 38.442422], [-76.393378, 38.389477], [-76.387002, 38.361267], [-76.400194624698, 38.3198719439614], [-76.402894, 38.311402], [-76.374481, 38.296348], [-76.392668, 38.239663], [-76.353516, 38.178135], [-76.320136, 38.138339], [-76.330794, 38.099331], [-76.322093, 38.036503], [-76.37179, 38.079565], [-76.430425, 38.119383], [-76.481036, 38.115873], [-76.54038, 38.152991], [-76.590637, 38.214212], [-76.673462, 38.234401], [-76.740055, 38.235227], [-76.805949, 38.252275], [-76.8270361292819, 38.2583001006141], [-76.864292, 38.268945], [-76.922177, 38.311339], [-76.975492, 38.347327], [-77.001638, 38.421952], [-77.016371, 38.445572], [-77.075489, 38.42471], [-77.123325, 38.410646], [-77.211188, 38.380662], [-77.259962, 38.435821], [-77.246584, 38.538341], [-77.183767, 38.600699], [-77.129084, 38.614364], [-77.1302, 38.635017], [-77.132501, 38.673816], [-77.0857847651564, 38.7052812818324], [-77.079499, 38.709515], [-77.053199, 38.709915], [-77.040998, 38.737914], [-77.0406725707781, 38.7466919304829], [-77.0392398850823, 38.7853363256236], [-77.039006, 38.791645], [-76.979497, 38.837812], [-76.909393, 38.892852], [-77.002546244247, 38.9655317004459], [-77.041018, 38.995548], [-77.119759, 38.934343], [-77.1197891567342, 38.9343765552932], [-77.146601, 38.96421], [-77.1800356321076, 38.9664229861505], [-77.202502, 38.96791], [-77.249803, 38.985909], [-77.248403, 39.026909], [-77.310705, 39.052008], [-77.3300377059541, 39.0559521134909], [-77.3429916044968, 39.0585948705951], [-77.359702, 39.062004], [-77.462617, 39.076248], [-77.481279, 39.105658], [-77.519929, 39.120925], [-77.521222, 39.161057], [-77.485971, 39.185665], [-77.459883, 39.218682], [-77.4600656264978, 39.2188429438594], [-77.496606, 39.251045], [-77.553114, 39.279268], [-77.588235, 39.301955], [-77.66613, 39.317008], [-77.6776957620787, 39.317940817088], [-77.719519, 39.321314], [-77.74593, 39.353221], [-77.740012, 39.401694], [-77.798201, 39.475719], [-77.8109438962622, 39.5007391665665], [-77.823762, 39.525907], [-77.829814, 39.587288], [-77.925988, 39.607642], [-78.006734, 39.601337], [-78.0276291001732, 39.6206559623441], [-78.08226, 39.671166], [-78.225075, 39.658878], [-78.313033, 39.631001], [-78.3327880214991, 39.6285275964988], [-78.382959, 39.622246], [-78.438179, 39.563524], [-78.460951, 39.525987], [-78.4682695950029, 39.5262242704717], [-78.590654, 39.530192], [-78.6550361715467, 39.5443822410837], [-78.707098, 39.555857], [-78.73905, 39.609697], [-78.77114, 39.638387], [-78.851016, 39.554044], [-78.942618, 39.479614], [-78.956751, 39.440264], [-79.035623, 39.473344], [-79.0674474080724, 39.4728086991282], [-79.091329, 39.472407], [-79.166497, 39.400888], [-79.2623921171761, 39.3262438284674], [-79.283723, 39.30964], [-79.35375, 39.278039], [-79.424413, 39.228171], [-79.486873, 39.205961], [-79.484372, 39.3443]]], [[[-77.119759, 38.934343], [-77.041018, 38.995548], [-77.002546244247, 38.9655317004459], [-76.909393, 38.892852], [-76.979497, 38.837812], [-77.039006, 38.791645], [-77.0390663567647, 38.8412718895186], [-77.039099, 38.868112], [-77.0902, 38.904211], [-77.119759, 38.934343]]], [[[-82.863342, 41.693693], [-82.82572, 41.72281], [-82.782719, 41.694003], [-82.788876, 41.643047], [-82.842099, 41.628323], [-82.863342, 41.693693]], [[-84.820159, 39.227225], [-84.8188774692751, 39.3051435835594], [-84.8188770978104, 39.3051661690523], [-84.817453, 39.391753], [-84.8161601949108, 39.5219681089929], [-84.8157059432555, 39.5677216640274], [-84.814129, 39.726556], [-84.8141281379328, 39.7266165116193], [-84.8114171063805, 39.9169136295798], [-84.8101612384745, 40.0050675438482], [-84.808706, 40.107216], [-84.8073435215596, 40.1801749828539], [-84.8049173025784, 40.3100959150341], [-84.8041205270149, 40.3527622302971], [-84.804119, 40.352844], [-84.802547, 40.50181], [-84.8024138785794, 40.5722128806467], [-84.8021190322638, 40.7281459368726], [-84.802119, 40.728163], [-84.8026702061534, 40.922568713921], [-84.8028596219514, 40.9893740520086], [-84.803234, 41.121414], [-84.8036449822555, 41.2525616835482], [-84.8037025496349, 41.2709318889484], [-84.804133, 41.408292], [-84.8042532576115, 41.4260497115499], [-84.8049581562396, 41.5301378133882], [-84.806082, 41.696089], [-84.438067, 41.704903], [-84.3995487854742, 41.7059213574056], [-84.3604190413973, 41.7069558826335], [-84.134417, 41.712931], [-83.8803904653533, 41.7201944903196], [-83.7631498513652, 41.7235468017856], [-83.763038, 41.72355], [-83.453832, 41.732647], [-83.409531, 41.691247], [-83.326825, 41.701562], [-83.23166, 41.644218], [-83.1638214175228, 41.624130312974], [-83.066593, 41.59534], [-83.028072, 41.555656], [-82.934369, 41.514353], [-82.859531, 41.576371], [-82.834101, 41.587587], [-82.717878, 41.54193], [-82.6905671606649, 41.4967057954382], [-82.687921, 41.492324], [-82.616952, 41.428425], [-82.533208, 41.391157], [-82.460599, 41.386316], [-82.361784, 41.426644], [-82.3480192068912, 41.4272633087345], [-82.268479, 41.430842], [-82.181598, 41.471634], [-81.994565, 41.51444], [-81.968480702529, 41.5038610079018], [-81.937862, 41.491443], [-81.8439197475277, 41.4945509051143], [-81.810758, 41.495648], [-81.738755, 41.48855], [-81.633652, 41.540458], [-81.488682733409, 41.6344639278209], [-81.466038, 41.649148], [-81.388632, 41.707144], [-81.286925, 41.760243], [-81.184368, 41.786671], [-81.05192, 41.839557], [-81.0022694065175, 41.8491724664376], [-80.900342, 41.868912], [-80.800794, 41.909635], [-80.581882, 41.95761], [-80.519425, 41.977523], [-80.5193967266905, 41.8495629905593], [-80.519357, 41.669767], [-80.519176130571, 41.4993400518638], [-80.5191652733637, 41.4891096844823], [-80.518893, 41.232556], [-80.5191972048065, 41.1332184995725], [-80.5192220860809, 41.1250935667958], [-80.519891, 40.906661], [-80.5198697076862, 40.9003239342489], [-80.5197051125992, 40.8513367786854], [-80.518991, 40.638801], [-80.583633, 40.61552], [-80.627171, 40.619936], [-80.667957, 40.582496], [-80.622195, 40.520497], [-80.604895, 40.446667], [-80.6273626299369, 40.3951709330172], [-80.631596, 40.385468], [-80.606596, 40.303869], [-80.644598, 40.25127], [-80.684173210708, 40.1870179733507], [-80.7025753036226, 40.1571413980097], [-80.705994, 40.151591], [-80.736804, 40.080072], [-80.7382082263768, 40.0338792082378], [-80.740126, 39.970793], [-80.764479, 39.95025], [-80.803394, 39.918762], [-80.8234381047859, 39.8500320873964], [-80.824276, 39.847159], [-80.824969, 39.801092], [-80.869933, 39.763555], [-80.8355216930075, 39.7192518022001], [-80.829764, 39.711839], [-80.865575, 39.662751], [-80.943782, 39.606926], [-81.0373650419871, 39.5380557124726], [-81.07595, 39.50966], [-81.1212738561078, 39.4576974138892], [-81.128533, 39.449375], [-81.185946, 39.430731], [-81.249088, 39.389992], [-81.347567, 39.34577], [-81.3703898088263, 39.3487006724034], [-81.393794, 39.351706], [-81.412706, 39.394618], [-81.456143, 39.409274], [-81.503189, 39.373242], [-81.559647, 39.330774], [-81.565247, 39.276175], [-81.613896, 39.275339], [-81.678331, 39.273755], [-81.711628, 39.219228], [-81.7214681391725, 39.2109608092037], [-81.752754, 39.184676], [-81.7522970367401, 39.1810347474059], [-81.742953, 39.106578], [-81.7502668434263, 39.1040311930998], [-81.807855, 39.083978], [-81.793304, 39.040353], [-81.775734, 38.980737], [-81.827354, 38.945898], [-81.89847, 38.929603], [-81.941829, 38.993295], [-82.007062, 39.029578], [-82.041563, 39.017878], [-82.089065, 38.975978], [-82.0988666505543, 38.9608792844933], [-82.134766, 38.905579], [-82.16157, 38.824632], [-82.20929, 38.802672], [-82.201537, 38.760372], [-82.185567, 38.659583], [-82.175167, 38.608484], [-82.218967, 38.591683], [-82.27427, 38.593683], [-82.2821333440281, 38.5798607964035], [-82.293271, 38.560283], [-82.304223, 38.496308], [-82.323999, 38.449268], [-82.381773, 38.434783], [-82.447076, 38.426982], [-82.5089669497313, 38.4146439126517], [-82.560664, 38.404338], [-82.593673, 38.421809], [-82.618474, 38.477089], [-82.6641207909684, 38.5077181960708], [-82.675724, 38.515504], [-82.724846, 38.5576], [-82.800112, 38.563183], [-82.8115423846504, 38.5723695895619], [-82.851314, 38.604334], [-82.869592, 38.678177], [-82.871192, 38.718377], [-82.889193, 38.756076], [-82.943147, 38.74328], [-83.011816, 38.730057], [-83.0303349312311, 38.7168676766561], [-83.042338, 38.708319], [-83.112372, 38.671685], [-83.128973, 38.640231], [-83.172647, 38.620252], [-83.239515, 38.628588], [-83.2642676908446, 38.6131319856547], [-83.286514, 38.599241], [-83.320531, 38.622713], [-83.376302, 38.661473], [-83.440404, 38.669361], [-83.533339, 38.702105], [-83.626922, 38.679387], [-83.642994, 38.643273], [-83.6469615501443, 38.6418337437309], [-83.679484, 38.630036], [-83.7058575510284, 38.6380366259831], [-83.77216, 38.65815], [-83.78362, 38.695641], [-83.834015, 38.716008], [-83.852085, 38.751433], [-83.9043750861048, 38.7672838752678], [-83.928454, 38.774583], [-83.978814, 38.787104], [-84.051642, 38.771397], [-84.0526095475065, 38.7716067284387], [-84.135088, 38.789485], [-84.212904, 38.805707], [-84.226155212983, 38.8297636689604], [-84.233265, 38.842671], [-84.2323050454035, 38.8747078960317], [-84.232132, 38.880483], [-84.288164, 38.955789], [-84.297255, 38.989694], [-84.3212072268568, 39.0205863526894], [-84.326539, 39.027463], [-84.40094, 39.046362], [-84.432941, 39.083961], [-84.445242, 39.114461], [-84.462042, 39.12176], [-84.480943, 39.11676], [-84.493743, 39.10246], [-84.5065187374369, 39.101766408188], [-84.550844, 39.09936], [-84.607928, 39.073238], [-84.6220474364107, 39.0783346767822], [-84.677247, 39.09826], [-84.7119293134928, 39.130678600088], [-84.714048, 39.132659], [-84.750749, 39.147358], [-84.820157, 39.10548], [-84.820159, 39.227225]]], [[[-84.2865983787409, 35.2057582184959], [-84.28322, 35.226577], [-84.223718, 35.269078], [-84.178516, 35.240679], [-84.097508, 35.247382], [-84.0291044137725, 35.2921237764939], [-84.02351, 35.295783], [-84.038081, 35.348363], [-84.007586, 35.371661], [-84.021782, 35.407418], [-83.973171, 35.452582], [-83.9589178345639, 35.4578994395799], [-83.9532313801504, 35.4600208895767], [-83.916801, 35.473612], [-83.848502, 35.519259], [-83.771736, 35.562118], [-83.6629119015893, 35.5677997932083], [-83.653159, 35.568309], [-83.587827, 35.566963], [-83.498335, 35.562981], [-83.452431, 35.602918], [-83.421576, 35.611186], [-83.347262, 35.660474], [-83.297154, 35.65775], [-83.26474416829, 35.7030894961701], [-83.2561415523036, 35.7151240626578], [-83.255351, 35.71623], [-83.198267, 35.725494], [-83.161537, 35.763363], [-83.097193, 35.776067], [-83.04853, 35.787706], [-82.978414, 35.78261], [-82.9666497428986, 35.795445979574], [-82.937437, 35.82732], [-82.899718, 35.874602], [-82.910608, 35.92693], [-82.8937514184314, 35.9338572697089], [-82.860724, 35.94743], [-82.81613, 35.923986], [-82.787465, 35.952163], [-82.779397, 35.992511], [-82.725065, 36.018204], [-82.628365, 36.062105], [-82.6057036107936, 36.0371988635619], [-82.595525, 36.026012], [-82.610885, 35.974442], [-82.557874, 35.953901], [-82.5080076597225, 35.9820132054415], [-82.464558, 36.006508], [-82.4169375946732, 36.0729700107085], [-82.409458, 36.083409], [-82.346857, 36.115209], [-82.297655, 36.13351], [-82.26569, 36.127614], [-82.2202530102866, 36.1538200398431], [-82.211251, 36.159012], [-82.140847, 36.136216], [-82.127146, 36.104417], [-82.0811489171324, 36.1056921143326], [-82.080143, 36.10572], [-82.02874, 36.124322], [-81.960101, 36.228131], [-81.9343692444926, 36.2647162043798], [-81.9184444729048, 36.2873579173821], [-81.908137, 36.302013], [-81.833202, 36.347339], [-81.768977, 36.341042], [-81.705966, 36.338496], [-81.7253728028917, 36.3897385587113], [-81.734312, 36.413342], [-81.695311, 36.467912], [-81.699962, 36.536829], [-81.677535, 36.588117], [-81.499831, 36.57982], [-81.3532212246022, 36.5762382311564], [-81.176712, 36.571926], [-81.061866, 36.56702], [-80.901726, 36.561751], [-80.901661118921, 36.561751187168], [-80.840213077246, 36.5619284516373], [-80.704831, 36.562319], [-80.6121887881246, 36.5582162763804], [-80.4403427430004, 36.5506059569159], [-80.431605, 36.550219], [-80.295243, 36.543973], [-80.0534550433501, 36.5426394280866], [-80.0273389151412, 36.5424953856142], [-80.027269, 36.542495], [-79.714850811052, 36.5414324847413], [-79.5136476625086, 36.5407482050707], [-79.510647, 36.540738], [-79.4700566739243, 36.5408361497866], [-79.3431159193695, 36.5411430999685], [-79.2184554959223, 36.5414445361761], [-79.1383358988714, 36.5416382700559], [-78.942009, 36.542113], [-78.7962739551405, 36.5417594935816], [-78.7341228011172, 36.5416087348408], [-78.509965, 36.541065], [-78.4572778962559, 36.5414487083995], [-78.323718509559, 36.5424213915586], [-78.132911, 36.543811], [-78.0462083043603, 36.5441976726866], [-77.8997741360467, 36.5448507330424], [-77.7671039699267, 36.5454424093355], [-77.749706, 36.54552], [-77.2989182850567, 36.546038840401], [-77.190175, 36.546164], [-77.1643226037182, 36.5461528198479], [-77.0716192313025, 36.5461127292585], [-76.917318, 36.546046], [-76.9160376328562, 36.5460813302903], [-76.9157318023497, 36.5460897693389], [-76.738329, 36.550985], [-76.5419658657183, 36.5507845323601], [-76.4914825754723, 36.5507329938364], [-76.3133029682603, 36.550551089807], [-76.313215, 36.550551], [-76.1223499470101, 36.5505523325541], [-76.02675, 36.550553], [-75.867044, 36.550754], [-75.838437, 36.434897], [-75.79641, 36.290351], [-75.7706514625597, 36.2320803070508], [-75.71831, 36.113674], [-75.658537, 36.02043], [-75.569794, 35.863301], [-75.51901, 35.769087], [-75.496086, 35.728515], [-75.458659, 35.596597], [-75.486771, 35.391652], [-75.533627, 35.225825], [-75.635493, 35.22026], [-75.7495614239622, 35.1856163621922], [-75.757916, 35.183079], [-75.912985, 35.1196], [-76.013145, 35.061855], [-76.137269, 34.987858], [-76.233088, 34.905477], [-76.31021, 34.852309], [-76.386804, 34.784579], [-76.450454, 34.71445], [-76.535946, 34.588577], [-76.553806, 34.628252], [-76.618719, 34.67255], [-76.726969, 34.69669], [-76.906257, 34.68282], [-77.1129643930768, 34.6380928323915], [-77.136843, 34.632926], [-77.240991, 34.587507], [-77.322524, 34.535574], [-77.462922, 34.471354], [-77.5152165445848, 34.4373849694266], [-77.635034, 34.359555], [-77.7135131704588, 34.2902471866868], [-77.764022, 34.245641], [-77.829209, 34.162618], [-77.8854550755211, 34.038240984853], [-77.915536, 33.971723], [-77.9348271350857, 33.9205485057973], [-77.960172, 33.853315], [-78.006765, 33.858704], [-78.018689, 33.888289], [-78.136952, 33.912178], [-78.276147, 33.912364], [-78.383964, 33.901946], [-78.541087, 33.851112], [-78.615932, 33.915523], [-78.6508712805333, 33.9450557205328], [-78.81171, 34.081006], [-79.071169, 34.29924], [-79.0712436122253, 34.2993039510346], [-79.0712542010482, 34.2993130268419], [-79.1083782887823, 34.3311325283704], [-79.358317, 34.545358], [-79.4502772890434, 34.6206089970087], [-79.4617910310013, 34.6300306785915], [-79.675299, 34.804744], [-79.6929463837093, 34.8049623069232], [-79.9246842531364, 34.8078290197515], [-79.927398038772, 34.807862590631], [-80.077223, 34.809716], [-80.3208325711298, 34.813620821544], [-80.561657, 34.817481], [-80.5617085493824, 34.8174824003365], [-80.796997, 34.823874], [-80.782042, 34.935782], [-80.8405485676148, 35.0014509426323], [-80.9061786627212, 35.0751154751148], [-80.93495, 35.107409], [-81.041489, 35.044703], [-81.058029, 35.07319], [-81.036759, 35.122552], [-81.0423024501386, 35.1467686494682], [-81.04287, 35.149248], [-81.3280909892918, 35.1622859155574], [-81.3676041320777, 35.1640921256134], [-81.494265, 35.169882], [-81.7681344077739, 35.1797077063839], [-81.8744102050921, 35.183520599502], [-81.9693584012576, 35.1869270884005], [-82.039651, 35.189449], [-82.1058516370446, 35.1908770736399], [-82.215996376597, 35.1932531051427], [-82.295354, 35.194965], [-82.3133570690064, 35.196132318454], [-82.3531752729195, 35.1987141296007], [-82.411301, 35.202483], [-82.455609, 35.177425], [-82.53256, 35.155617], [-82.5777151484413, 35.1464753478475], [-82.68604, 35.124545], [-82.746431, 35.079131], [-82.7617976610408, 35.0818284636457], [-82.783283, 35.0856], [-82.897499, 35.056021], [-82.897559231248, 35.0560052045865], [-83.0084105925124, 35.0269348608162], [-83.108399912205, 35.0007130457328], [-83.108606, 35.000659], [-83.322768, 34.995874], [-83.4828732042907, 34.9908739612868], [-83.5491807535047, 34.988803195914], [-83.619985, 34.986592], [-83.936427344252, 34.9874843833797], [-83.936646, 34.987485], [-84.0053367334383, 34.9876495840123], [-84.1294469626359, 34.9879469539553], [-84.321869, 34.988408], [-84.2865983787409, 35.2057582184959]]], [[[-82.598864, 38.201007], [-82.5846938141256, 38.2405129933697], [-82.581796, 38.248592], [-82.571877, 38.315781], [-82.597979, 38.344909], [-82.593673, 38.421809], [-82.560664, 38.404338], [-82.5089669497313, 38.4146439126517], [-82.447076, 38.426982], [-82.381773, 38.434783], [-82.323999, 38.449268], [-82.304223, 38.496308], [-82.293271, 38.560283], [-82.2821333440281, 38.5798607964035], [-82.27427, 38.593683], [-82.218967, 38.591683], [-82.175167, 38.608484], [-82.185567, 38.659583], [-82.201537, 38.760372], [-82.20929, 38.802672], [-82.16157, 38.824632], [-82.134766, 38.905579], [-82.0988666505543, 38.9608792844933], [-82.089065, 38.975978], [-82.041563, 39.017878], [-82.007062, 39.029578], [-81.941829, 38.993295], [-81.89847, 38.929603], [-81.827354, 38.945898], [-81.775734, 38.980737], [-81.793304, 39.040353], [-81.807855, 39.083978], [-81.7502668434263, 39.1040311930998], [-81.742953, 39.106578], [-81.7522970367401, 39.1810347474059], [-81.752754, 39.184676], [-81.7214681391725, 39.2109608092037], [-81.711628, 39.219228], [-81.678331, 39.273755], [-81.613896, 39.275339], [-81.565247, 39.276175], [-81.559647, 39.330774], [-81.503189, 39.373242], [-81.456143, 39.409274], [-81.412706, 39.394618], [-81.393794, 39.351706], [-81.3703898088263, 39.3487006724034], [-81.347567, 39.34577], [-81.249088, 39.389992], [-81.185946, 39.430731], [-81.128533, 39.449375], [-81.1212738561078, 39.4576974138892], [-81.07595, 39.50966], [-81.0373650419871, 39.5380557124726], [-80.943782, 39.606926], [-80.865575, 39.662751], [-80.829764, 39.711839], [-80.8355216930075, 39.7192518022001], [-80.869933, 39.763555], [-80.824969, 39.801092], [-80.824276, 39.847159], [-80.8234381047859, 39.8500320873964], [-80.803394, 39.918762], [-80.764479, 39.95025], [-80.740126, 39.970793], [-80.7382082263768, 40.0338792082378], [-80.736804, 40.080072], [-80.705994, 40.151591], [-80.7025753036226, 40.1571413980097], [-80.684173210708, 40.1870179733507], [-80.644598, 40.25127], [-80.606596, 40.303869], [-80.631596, 40.385468], [-80.6273626299369, 40.3951709330172], [-80.604895, 40.446667], [-80.622195, 40.520497], [-80.667957, 40.582496], [-80.627171, 40.619936], [-80.583633, 40.61552], [-80.518991, 40.638801], [-80.5190171173474, 40.4773631462371], [-80.5190296911941, 40.3996410563407], [-80.519039, 40.342101], [-80.5190843704566, 40.1596719951181], [-80.51912, 40.01641], [-80.5191607943145, 39.9622000525219], [-80.519342, 39.721403], [-80.421388, 39.721189], [-80.075947, 39.72135], [-79.9160173560378, 39.7210559335188], [-79.763774, 39.720776], [-79.476662, 39.721078], [-79.482366, 39.531689], [-79.484372, 39.3443], [-79.486873, 39.205961], [-79.424413, 39.228171], [-79.35375, 39.278039], [-79.283723, 39.30964], [-79.2623921171761, 39.3262438284674], [-79.166497, 39.400888], [-79.091329, 39.472407], [-79.0674474080724, 39.4728086991282], [-79.035623, 39.473344], [-78.956751, 39.440264], [-78.942618, 39.479614], [-78.851016, 39.554044], [-78.77114, 39.638387], [-78.73905, 39.609697], [-78.707098, 39.555857], [-78.6550361715467, 39.5443822410837], [-78.590654, 39.530192], [-78.4682695950029, 39.5262242704717], [-78.460951, 39.525987], [-78.438179, 39.563524], [-78.382959, 39.622246], [-78.3327880214991, 39.6285275964988], [-78.313033, 39.631001], [-78.225075, 39.658878], [-78.08226, 39.671166], [-78.0276291001732, 39.6206559623441], [-78.006734, 39.601337], [-77.925988, 39.607642], [-77.829814, 39.587288], [-77.823762, 39.525907], [-77.8109438962622, 39.5007391665665], [-77.798201, 39.475719], [-77.740012, 39.401694], [-77.74593, 39.353221], [-77.719519, 39.321314], [-77.778068, 39.229305], [-77.809125, 39.168567], [-77.828157, 39.132329], [-77.8283018332673, 39.1324224548325], [-78.032841, 39.264403], [-78.0331834609342, 39.2646236984747], [-78.0331852353666, 39.2646248420052], [-78.18737, 39.363989], [-78.2291295342185, 39.3906638872041], [-78.347087, 39.466012], [-78.337133, 39.409169], [-78.34048, 39.353492], [-78.401813, 39.276754], [-78.40498, 39.238006], [-78.428697, 39.187217], [-78.413943, 39.158415], [-78.508132, 39.08863], [-78.532266186557, 39.0527645240444], [-78.561711, 39.009007], [-78.620453, 38.982601], [-78.681617, 38.92584], [-78.772793, 38.893742], [-78.821167, 38.830982], [-78.869276, 38.762991], [-78.999014, 38.840074], [-79.023053, 38.798613], [-79.057253, 38.761413], [-79.088055, 38.690115], [-79.092955, 38.659517], [-79.154357, 38.606518], [-79.201459, 38.527821], [-79.2284230027078, 38.4797415574873], [-79.23162, 38.474041], [-79.297758, 38.416438], [-79.3112960655144, 38.418454601455], [-79.370302, 38.427244], [-79.476638, 38.457228], [-79.54257, 38.553217], [-79.649075, 38.591515], [-79.669128, 38.510883], [-79.691088, 38.463744], [-79.689675, 38.431439], [-79.7346, 38.356728], [-79.804093, 38.313922], [-79.787542, 38.273298], [-79.7970135368069, 38.2672681211392], [-79.850324, 38.233329], [-79.916174, 38.184386], [-79.938952, 38.111619], [-79.9619822726354, 38.0636070994933], [-79.971231, 38.044326], [-80.036236, 37.96792], [-80.0558115945897, 37.9518782200979], [-80.131931, 37.8895], [-80.199633, 37.827507], [-80.218616, 37.783291], [-80.258143, 37.720612], [-80.290033810255, 37.686136458971], [-80.292258, 37.683732], [-80.2243032443768, 37.6239913711709], [-80.223386, 37.623185], [-80.28244, 37.585481], [-80.291644, 37.536505], [-80.39988, 37.462314], [-80.46482, 37.426144], [-80.4695688905042, 37.4290254659927], [-80.544836, 37.474695], [-80.664971, 37.414215], [-80.770082, 37.372363], [-80.836446, 37.424355], [-80.8573585701898, 37.421128713999], [-80.8581481168198, 37.4210069067215], [-80.865148, 37.419927], [-80.883248, 37.383933], [-80.835479, 37.334824], [-80.919259, 37.306163], [-80.9808452568928, 37.3008528161905], [-80.996013, 37.299545], [-81.112596, 37.278497], [-81.225104, 37.234874], [-81.362156, 37.337687], [-81.427946, 37.271015], [-81.483559, 37.250604], [-81.53307, 37.223414], [-81.560625, 37.206663], [-81.678603, 37.202467], [-81.7390550304855, 37.2394971038728], [-81.744003, 37.242528], [-81.774747, 37.274847], [-81.849949, 37.285227], [-81.896001, 37.331967], [-81.933601, 37.389217], [-81.93695, 37.41992], [-81.984891, 37.454315], [-81.932279, 37.511961], [-81.968297, 37.537798], [-82.064418, 37.544516], [-82.141555, 37.595166], [-82.226111, 37.653092], [-82.296118, 37.686174], [-82.3206749571778, 37.7459658434594], [-82.327356, 37.762233], [-82.369973, 37.801749], [-82.3984648162589, 37.8430541504629], [-82.41869, 37.872375], [-82.487556, 37.916975], [-82.479420123223, 37.9385625246981], [-82.464987, 37.976859], [-82.549407, 38.063063], [-82.626182, 38.134835], [-82.598864, 38.201007]]], [[[-88.0594711307875, 37.8666875964907], [-88.040861, 37.891767], [-88.016311, 37.961574], [-88.030884, 38.030713], [-87.98877, 38.055591], [-87.96221, 38.100054], [-87.927468, 38.151946], [-87.975819, 38.197834], [-87.9702008408039, 38.2302710583858], [-87.968968, 38.237389], [-87.908542, 38.268581], [-87.831972, 38.307241], [-87.779996, 38.370842], [-87.7511059451205, 38.4188492084548], [-87.74104, 38.435576], [-87.714047, 38.47988], [-87.654166, 38.511911], [-87.660732, 38.541092], [-87.6483567630745, 38.5666287160576], [-87.637752, 38.588512], [-87.62012, 38.639489], [-87.545538, 38.677613], [-87.498948, 38.757774], [-87.521681, 38.826576], [-87.5352570508085, 38.8524914649674], [-87.54737, 38.875614], [-87.5287176636979, 38.9059437862892], [-87.527645, 38.907688], [-87.529496, 38.971925], [-87.579117, 39.001607], [-87.572588, 39.057286], [-87.625379, 39.101806], [-87.6383674685664, 39.1578118692748], [-87.640435, 39.166727], [-87.577029, 39.211123], [-87.593486, 39.247452], [-87.594745845406, 39.259383616483], [-87.600397, 39.312904], [-87.578331, 39.340343], [-87.531646, 39.347888], [-87.531624, 39.469378], [-87.5316666819743, 39.4771109927429], [-87.532385282791, 39.6073049442215], [-87.532703, 39.664868], [-87.5324544938843, 39.8829991187823], [-87.532308, 40.011587], [-87.5318629009431, 40.0587990953503], [-87.531021612428, 40.1480353967457], [-87.530054, 40.250671], [-87.5270652633992, 40.4768822924615], [-87.5268757732538, 40.4912244096904], [-87.526292, 40.535409], [-87.5261364904237, 40.7368850814229], [-87.526014, 40.895582], [-87.526463234368, 41.0103365222041], [-87.52652, 41.024837], [-87.5266481580824, 41.1660899445116], [-87.5267678862275, 41.2980516024792], [-87.526768, 41.298177], [-87.5254093533475, 41.4702806660617], [-87.52494, 41.529735], [-87.524044, 41.708335], [-87.470742, 41.672835], [-87.415816, 41.688183], [-87.365439, 41.629536], [-87.261536, 41.620336], [-87.2227999491184, 41.62888983896], [-87.125835, 41.650302], [-87.027888, 41.674661], [-86.9328490284944, 41.7164969379022], [-86.90913, 41.726938], [-86.824828, 41.76024], [-86.6996808040417, 41.7598546378772], [-86.640044, 41.759671], [-86.5242197424429, 41.7595721559735], [-86.501773, 41.759553], [-86.2260943449874, 41.7600159591164], [-86.22607, 41.760016], [-86.0625630290106, 41.759653033158], [-85.791363, 41.759051], [-85.7913349619628, 41.7590510395575], [-85.6597502379909, 41.759236686047], [-85.2921788113335, 41.7597552747018], [-85.232835, 41.759839], [-85.196774200302, 41.759870841803], [-84.8251282838768, 41.7601990063519], [-84.805883, 41.760216], [-84.806082, 41.696089], [-84.8049581562396, 41.5301378133882], [-84.8042532576115, 41.4260497115499], [-84.804133, 41.408292], [-84.8037025496349, 41.2709318889484], [-84.8036449822555, 41.2525616835482], [-84.803234, 41.121414], [-84.8028596219514, 40.9893740520086], [-84.8026702061534, 40.922568713921], [-84.802119, 40.728163], [-84.8021190322638, 40.7281459368726], [-84.8024138785794, 40.5722128806467], [-84.802547, 40.50181], [-84.804119, 40.352844], [-84.8041205270149, 40.3527622302971], [-84.8049173025784, 40.3100959150341], [-84.8073435215596, 40.1801749828539], [-84.808706, 40.107216], [-84.8101612384745, 40.0050675438482], [-84.8114171063805, 39.9169136295798], [-84.8141281379328, 39.7266165116193], [-84.814129, 39.726556], [-84.8157059432555, 39.5677216640274], [-84.8161601949108, 39.5219681089929], [-84.817453, 39.391753], [-84.8188770978104, 39.3051661690523], [-84.8188774692751, 39.3051435835594], [-84.820159, 39.227225], [-84.820157, 39.10548], [-84.860689, 39.07814], [-84.897171, 39.052407], [-84.8775702820623, 39.0312628990423], [-84.849445, 39.000923], [-84.832617, 38.96146], [-84.877762, 38.920357], [-84.8643271879881, 38.9137941412077], [-84.830472, 38.897256], [-84.786406, 38.88222], [-84.7987011365099, 38.8592249335163], [-84.803247, 38.850723], [-84.812877, 38.786087], [-84.856904, 38.790224], [-84.962535, 38.778035], [-85.0210522365665, 38.7585272930799], [-85.071928, 38.741567], [-85.146861, 38.695427], [-85.187278, 38.687609], [-85.2017606225486, 38.6974407918463], [-85.238665, 38.722494], [-85.275454, 38.741172], [-85.3326407337514, 38.7348167543477], [-85.340953, 38.733893], [-85.400481, 38.73598], [-85.448862, 38.713368], [-85.438742, 38.659319], [-85.43617, 38.598292], [-85.4314160707522, 38.5862856131089], [-85.4156, 38.546341], [-85.432981047742, 38.5241121702949], [-85.433136, 38.523914], [-85.474354, 38.504074], [-85.498866, 38.468242], [-85.587758, 38.450495], [-85.621625, 38.417089], [-85.6344441449773, 38.3783994475748], [-85.646201, 38.342916], [-85.683561, 38.295469], [-85.750962, 38.26787], [-85.794501505519, 38.2779525587226], [-85.816164, 38.282969], [-85.839664, 38.23977], [-85.894764, 38.188469], [-85.8959128763279, 38.1799188193363], [-85.905164, 38.11107], [-85.922395, 38.028679], [-85.9517264381006, 38.0149416294697], [-85.976028, 38.00356], [-85.9973516597543, 37.9912256022991], [-86.033386, 37.970382], [-86.095766, 38.00893], [-86.206439, 38.021876], [-86.278656, 38.098509], [-86.321274, 38.147418], [-86.387216, 38.124632], [-86.4335700794087, 38.0871478523782], [-86.434046, 38.086763], [-86.471903, 38.046218], [-86.4880524671283, 38.0436653088997], [-86.521825, 38.038327], [-86.525174, 37.968228], [-86.509368, 37.902887], [-86.599848, 37.906754], [-86.615215, 37.852857], [-86.6467093891411, 37.8649113991803], [-86.658374, 37.869376], [-86.722247, 37.892648], [-86.779993, 37.956522], [-86.810913, 37.99715], [-86.8135795707459, 37.9960671327985], [-86.875874, 37.97077], [-86.927747, 37.934956], [-86.9777414251102, 37.9256992083727], [-87.010315, 37.919668], [-87.043049, 37.875049], [-87.057836, 37.827457], [-87.105614, 37.767631], [-87.137502, 37.807264], [-87.180063, 37.841375], [-87.25525, 37.867326], [-87.270387407739, 37.87542282659], [-87.304057452442, 37.8934325491223], [-87.331765, 37.908253], [-87.418585, 37.944763], [-87.4487002885408, 37.9338545298067], [-87.486347, 37.920218], [-87.551277, 37.925418], [-87.608479, 37.898794], [-87.625851, 37.851919], [-87.681633, 37.855917], [-87.7131573360969, 37.8830423995257], [-87.723635, 37.892058], [-87.808013, 37.875191], [-87.87254, 37.920999], [-87.921744, 37.907885], [-87.9253933817098, 37.8995914771373], [-87.938128, 37.870651], [-87.903804, 37.817762], [-87.935861, 37.789703], [-87.970262, 37.781856], [-88.02803, 37.799224], [-88.067364, 37.856051], [-88.0594711307875, 37.8666875964907]]], [[[-80.519891, 40.906661], [-80.5192220860809, 41.1250935667958], [-80.5191972048065, 41.1332184995725], [-80.518893, 41.232556], [-80.5191652733637, 41.4891096844823], [-80.519176130571, 41.4993400518638], [-80.519357, 41.669767], [-80.5193967266905, 41.8495629905593], [-80.519425, 41.977523], [-80.329976, 42.036168], [-80.154084, 42.114757], [-80.136213, 42.149937], [-80.088512, 42.173184], [-80.020323, 42.163116], [-79.923924, 42.207546], [-79.844661, 42.235486], [-79.761951, 42.26986], [-79.762122, 42.131246], [-79.761313, 41.998808], [-79.6108357749867, 41.9985199041084], [-79.472472, 41.998255], [-79.0612581876299, 41.9988381187249], [-78.983065, 41.998949], [-78.9188983633788, 41.9991031002259], [-78.59665, 41.999877], [-78.3081443402607, 41.9990711776986], [-78.271204, 41.998968], [-78.2063790981571, 41.9990887227984], [-78.031177, 41.999415], [-77.83203, 41.998524], [-77.749932223724, 41.9987554366682], [-77.610020114476, 41.9991498540796], [-77.007635, 42.000848], [-76.9657915095295, 42.0007834917859], [-76.9269253205306, 42.0007235735426], [-76.558118, 42.000155], [-76.5576987221493, 42.0001496652537], [-76.462155, 41.998934], [-76.1455189947821, 41.998866463308], [-76.10584, 41.998858], [-75.870677, 41.998828], [-75.4831402165408, 41.9993981778444], [-75.477144, 41.999407], [-75.3599310768702, 41.9936893594868], [-75.341125, 41.992772], [-75.291762, 41.947092], [-75.263005, 41.885109], [-75.190203, 41.862454], [-75.1452931756179, 41.8497375185041], [-75.113369, 41.840698], [-75.074412, 41.802191], [-75.053431, 41.752538], [-75.049281, 41.641862], [-75.0461986059117, 41.6037640199027], [-75.043879, 41.575094], [-74.982463, 41.496467], [-74.890358, 41.455324], [-74.799546, 41.43129], [-74.7562718347252, 41.4276274285434], [-74.734893, 41.425818], [-74.694914, 41.357423], [-74.760325, 41.340325], [-74.815703, 41.296151], [-74.867405, 41.22777], [-74.8793333807378, 41.2050477441029], [-74.905256, 41.155668], [-74.979873, 41.110423], [-74.9830420742478, 41.1060175588568], [-74.9923859951822, 41.0930282469934], [-75.015271, 41.061215], [-75.070532, 41.01862], [-75.133086, 40.980179], [-75.1232539442085, 40.9653055343877], [-75.09772, 40.926679], [-75.065438, 40.885682], [-75.090962, 40.849187], [-75.108505, 40.791094], [-75.177477, 40.764225], [-75.192612, 40.715874], [-75.191059, 40.637971], [-75.1892364013559, 40.6090569611221], [-75.1881998781252, 40.5926133666486], [-75.186737, 40.569406], [-75.136748, 40.575731], [-75.078503, 40.548296], [-75.062227, 40.481391], [-75.070568, 40.455165], [-75.056102, 40.416066], [-75.024775, 40.403455], [-74.969597, 40.39977], [-74.946006, 40.357306], [-74.9281105690914, 40.3398284476893], [-74.90331, 40.315607], [-74.856508, 40.277407], [-74.823907, 40.241508], [-74.760605, 40.198909], [-74.7484976572578, 40.184908614104], [-74.721604, 40.15381], [-74.7233792971515, 40.1528955462317], [-74.769488, 40.129145], [-74.825907, 40.12391], [-74.863809, 40.08221], [-74.932211, 40.068411], [-74.9731758798159, 40.046332290708], [-74.989914, 40.037311], [-75.059017, 39.992512], [-75.0607519886792, 39.9917310058102], [-75.11922, 39.965412], [-75.13572, 39.947112], [-75.135548101392, 39.9433078838052], [-75.1342656240616, 39.9149266604838], [-75.13342, 39.896213], [-75.1407939068226, 39.8941020495155], [-75.183023, 39.882013], [-75.211394924927, 39.8664092625395], [-75.221025, 39.861113], [-75.2572734800476, 39.8549350617895], [-75.293376, 39.848782], [-75.341765, 39.846082], [-75.4104924776371, 39.8046722343221], [-75.415062, 39.801919], [-75.481207, 39.829191], [-75.570433, 39.839185], [-75.5796477422344, 39.8374141038914], [-75.5925626443241, 39.8349321082726], [-75.5943169052201, 39.8345949730913], [-75.662846, 39.821425], [-75.717059, 39.792325], [-75.753228, 39.757989], [-75.773786, 39.7222], [-75.788596, 39.722199], [-76.1356974269902, 39.7217675506067], [-76.2332793471166, 39.7216462556279], [-76.233485, 39.721646], [-76.2396837411146, 39.7216419899246], [-76.41898, 39.721526], [-76.5694491257313, 39.7214585707527], [-76.6976581403161, 39.7214011168578], [-76.715771, 39.721393], [-76.7870971997576, 39.7210481461113], [-76.991062, 39.720062], [-76.9993180263332, 39.7200676723526], [-77.2170237552374, 39.7202172483854], [-77.23995, 39.720233], [-77.4591384979573, 39.7202291767892], [-77.4691450036804, 39.72022900225], [-77.469274, 39.720229], [-77.768644, 39.721538], [-78.075861, 39.722448], [-78.0989706961667, 39.7224661944281], [-78.342593, 39.722658], [-78.3428335185744, 39.7226582929265], [-78.380477064564, 39.72270413884], [-78.723578, 39.723122], [-78.8082995296216, 39.7230709562769], [-78.9284161298889, 39.7229985874409], [-79.045576, 39.722928], [-79.3924584050224, 39.7214393586401], [-79.476662, 39.721078], [-79.763774, 39.720776], [-79.9160173560378, 39.7210559335188], [-80.075947, 39.72135], [-80.421388, 39.721189], [-80.519342, 39.721403], [-80.5191607943145, 39.9622000525219], [-80.51912, 40.01641], [-80.5190843704566, 40.1596719951181], [-80.519039, 40.342101], [-80.5190296911941, 40.3996410563407], [-80.5190171173474, 40.4773631462371], [-80.518991, 40.638801], [-80.5197051125992, 40.8513367786854], [-80.5198697076862, 40.9003239342489], [-80.519891, 40.906661]]], [[[-84.61622, 45.89447], [-84.517895, 45.828543], [-84.419696, 45.799823], [-84.35602, 45.771895], [-84.394038, 45.727623], [-84.484128, 45.73071], [-84.587572, 45.8067], [-84.650783, 45.85921], [-84.61622, 45.89447]], [[-85.701809, 45.736129], [-85.651866, 45.743139], [-85.524448, 45.829794], [-85.360952, 45.817554], [-85.377132, 45.769013], [-85.509276, 45.596475], [-85.561634, 45.572213], [-85.622741, 45.586028], [-85.696872, 45.69725], [-85.701809, 45.736129]], [[-86.138095, 45.043038], [-86.04443, 45.159582], [-85.989412, 45.151069], [-85.954021, 45.119281], [-85.976883, 45.06266], [-86.081487, 44.990096], [-86.154824, 45.002394], [-86.138095, 45.043038]], [[-86.824828, 41.76024], [-86.693267, 41.835403], [-86.597899, 41.918291], [-86.5281140302125, 42.03841982407], [-86.501322, 42.08454], [-86.466262, 42.134406], [-86.3663791270383, 42.2431077271809], [-86.356218, 42.254166], [-86.284448, 42.394563], [-86.2769940445315, 42.4193103159263], [-86.240642, 42.54], [-86.226638, 42.644922], [-86.208309, 42.762789], [-86.2085385029097, 42.7675438719157], [-86.214138, 42.883555], [-86.2142923988824, 42.8848840080177], [-86.226305, 42.988284], [-86.254646, 43.083409], [-86.2739282786714, 43.1183679687078], [-86.316259, 43.195114], [-86.3480562518982, 43.2448802601045], [-86.407832, 43.338436], [-86.448743, 43.432013], [-86.4635168866811, 43.4723296995067], [-86.479276, 43.515335], [-86.529507, 43.593462], [-86.540787, 43.644593], [-86.510319, 43.698625], [-86.445123, 43.771564], [-86.4354850382583, 43.8194291980042], [-86.431198, 43.84072], [-86.447915, 43.918089], [-86.463136, 43.970976], [-86.501738, 44.021912], [-86.514702, 44.058119], [-86.429871, 44.119782], [-86.3878373602652, 44.178694], [-86.351638, 44.229429], [-86.26871, 44.345324], [-86.251926, 44.400984], [-86.248914, 44.483004], [-86.2370208650165, 44.5182985861447], [-86.220697, 44.566742], [-86.25395, 44.64808], [-86.248474, 44.699046], [-86.160268, 44.728189], [-86.089186, 44.741496], [-86.0784981880303, 44.7783307476609], [-86.065966, 44.821522], [-86.058862, 44.911012], [-85.980219, 44.906136], [-85.9316, 44.968788], [-85.854304, 44.938147], [-85.780439, 44.977932], [-85.746444, 45.051229], [-85.681096, 45.092693], [-85.633124, 45.170899], [-85.551072, 45.210742], [-85.531461, 45.177247], [-85.56613, 45.043633], [-85.5551427027088, 45.0270345441369], [-85.520034, 44.973996], [-85.475204, 44.991053], [-85.4314154750083, 45.0166494527177], [-85.380659, 45.046319], [-85.366749, 45.101591], [-85.380464, 45.180876], [-85.377824295933, 45.2076444024869], [-85.371593, 45.270834], [-85.294848, 45.316408], [-85.196704, 45.360641], [-85.096056872271, 45.3630880404348], [-85.054805, 45.364091], [-84.959119, 45.375973], [-84.912956, 45.409776], [-84.980953, 45.429382], [-85.040936, 45.436701], [-85.109252, 45.521626], [-85.119737, 45.569026], [-85.061488, 45.639505], [-84.97095, 45.686334], [-85.014509, 45.760329], [-84.866976, 45.752066], [-84.772765, 45.789301], [-84.732242, 45.780496853289], [-84.718904, 45.777599], [-84.553311, 45.698566], [-84.46168, 45.652404], [-84.413642, 45.669427], [-84.329537, 45.66438], [-84.2108933451565, 45.6262310177199], [-84.196043, 45.621456], [-84.126532, 45.556616], [-84.095905, 45.497298], [-83.99835, 45.491158], [-83.909472, 45.485784], [-83.841543, 45.435287], [-83.697316, 45.396239], [-83.599273, 45.352561], [-83.488826, 45.355872], [-83.385104, 45.274195], [-83.405914, 45.227157], [-83.3852110792565, 45.207103993148], [-83.315924, 45.139992], [-83.265896, 45.026844], [-83.340257, 45.041545], [-83.399255, 45.070364], [-83.442052, 45.051056], [-83.435822, 45.000012], [-83.438856, 44.940843], [-83.352815, 44.886164], [-83.320503, 44.880571], [-83.3162661085766, 44.8585914505609], [-83.296971, 44.758495], [-83.276836, 44.689354], [-83.314517, 44.608725], [-83.3169638754402, 44.5116830117597], [-83.31761, 44.486058], [-83.336988, 44.332919], [-83.401822, 44.301831], [-83.442731, 44.265361], [-83.524817, 44.261558], [-83.5646457924967, 44.163524818403], [-83.567744, 44.155899], [-83.58409, 44.056748], [-83.679654, 44.036365], [-83.693214, 43.98877], [-83.787863, 43.985279], [-83.869406, 43.960719], [-83.901329352181, 43.9084270508442], [-83.910613, 43.89322], [-83.929375, 43.777091], [-83.94774, 43.735165], [-83.909479, 43.672622], [-83.817894, 43.673789], [-83.731005, 43.623369], [-83.6994170918811, 43.6016371502565], [-83.683351, 43.590584], [-83.51234, 43.733726], [-83.5060855525428, 43.7451572131399], [-83.479567, 43.793625], [-83.43261, 43.885273], [-83.407146, 43.919807], [-83.28231, 43.938031], [-83.26153, 43.973525], [-83.134881, 43.993147], [-83.046577, 44.01571], [-83.024604, 44.045174], [-82.928884, 44.069389], [-82.793205, 44.023247], [-82.709839, 43.948226], [-82.633641, 43.831224], [-82.612224, 43.739771], [-82.6064790828381, 43.6904492707095], [-82.593785, 43.581467], [-82.53993, 43.422378], [-82.523086, 43.225361], [-82.5060424049551, 43.1688273713115], [-82.486042, 43.102486], [-82.415937, 43.005555], [-82.428603, 42.952001], [-82.469912, 42.887459], [-82.467483, 42.76191], [-82.509935, 42.637294], [-82.583996, 42.554041], [-82.679059, 42.52221], [-82.706371, 42.621107], [-82.639701, 42.661233], [-82.707885, 42.675497], [-82.801022, 42.629545], [-82.766004, 42.600051], [-82.755927, 42.564415], [-82.859316, 42.541935], [-82.8703322691976, 42.4510095842051], [-82.870347, 42.450888], [-82.92397, 42.352068], [-82.988619, 42.332439], [-83.096521, 42.290138], [-83.1254680663077, 42.2008263707347], [-83.133923, 42.17474], [-83.133511, 42.088143], [-83.185526, 42.052243], [-83.1949523116895, 42.033107926811], [-83.216897, 41.988561], [-83.269521, 41.939042], [-83.326024, 41.924961], [-83.341557, 41.879956], [-83.39622, 41.852965], [-83.441668, 41.808646], [-83.424076, 41.740738], [-83.453832, 41.732647], [-83.763038, 41.72355], [-83.7631498513652, 41.7235468017856], [-83.8803904653533, 41.7201944903196], [-84.134417, 41.712931], [-84.3604190413973, 41.7069558826335], [-84.3995487854742, 41.7059213574056], [-84.438067, 41.704903], [-84.806082, 41.696089], [-84.805883, 41.760216], [-84.8251282838768, 41.7601990063519], [-85.196774200302, 41.759870841803], [-85.232835, 41.759839], [-85.2921788113335, 41.7597552747018], [-85.6597502379909, 41.759236686047], [-85.7913349619628, 41.7590510395575], [-85.791363, 41.759051], [-86.0625630290106, 41.759653033158], [-86.22607, 41.760016], [-86.2260943449874, 41.7600159591164], [-86.501773, 41.759553], [-86.5242197424429, 41.7595721559735], [-86.640044, 41.759671], [-86.6996808040417, 41.7598546378772], [-86.824828, 41.76024]], [[-89.221332, 47.908069], [-89.179154, 47.93503], [-89.018303, 47.992525], [-88.940886, 48.01959], [-88.893701, 48.03477], [-88.816084, 48.057006], [-88.728198, 48.101914], [-88.631908, 48.148307], [-88.547033, 48.174891], [-88.425162, 48.21065], [-88.427373, 48.166764], [-88.55044, 48.102111], [-88.579172, 48.040758], [-88.718555, 47.995134], [-88.852923, 47.965322], [-88.898986, 47.900685], [-89.044463, 47.85575], [-89.157738, 47.824015], [-89.201812, 47.850243], [-89.255202, 47.876102], [-89.221332, 47.908069]], [[-90.418136, 46.566094], [-90.327626, 46.607744], [-90.237609, 46.624485], [-90.04542, 46.668272], [-89.918466, 46.740324], [-89.8843295804115, 46.765471149277], [-89.831956, 46.804053], [-89.720277, 46.830413], [-89.642255, 46.82534], [-89.569808, 46.831859], [-89.49908, 46.841621], [-89.415154, 46.843983], [-89.227914, 46.912954], [-89.142595, 46.984859], [-89.02893, 47.00114], [-88.959409, 47.008496], [-88.9333684513417, 47.033599097856], [-88.924492, 47.042156], [-88.88914, 47.100575], [-88.814834, 47.141399], [-88.69966, 47.204831], [-88.584912, 47.242361], [-88.5129465056361, 47.286107247715], [-88.50078, 47.293503], [-88.418673, 47.371188], [-88.285195, 47.422392], [-88.217822, 47.448738], [-88.085252, 47.468961], [-87.929269, 47.478737], [-87.801184, 47.473301], [-87.680067, 47.455685], [-87.591498, 47.424113], [-87.604704, 47.388625], [-87.800294, 47.392148], [-87.941613, 47.390073], [-87.94336, 47.335899], [-88.016478, 47.306275], [-88.096851, 47.261351], [-88.194218, 47.209242], [-88.2004506759337, 47.199716895982], [-88.239895, 47.139436], [-88.340052, 47.080494], [-88.385606, 47.004522], [-88.4393631859438, 46.9419824250004], [-88.455404, 46.923321], [-88.477935, 46.85056], [-88.372681, 46.872277], [-88.244437, 46.929612], [-88.143688, 46.966665], [-88.065192, 46.918563], [-88.0445216822815, 46.9174499452762], [-87.900339, 46.909686], [-87.77693, 46.876726], [-87.687164, 46.841742], [-87.595307, 46.78295], [-87.573203, 46.720471], [-87.503025, 46.647497], [-87.381649, 46.580059], [-87.366767, 46.507303], [-87.175065, 46.497548], [-87.1163595894707, 46.5061514021205], [-86.976958, 46.526581], [-86.903742, 46.466138], [-86.810967, 46.449663], [-86.750157, 46.479109], [-86.695645, 46.555026], [-86.62738, 46.53371], [-86.557731, 46.487434], [-86.45993, 46.551928], [-86.188024, 46.654008], [-86.138295, 46.672935], [-85.995044, 46.673676], [-85.8646071413292, 46.6865683155134], [-85.841057, 46.688896], [-85.482096, 46.680432], [-85.25686, 46.75338], [-85.2378731773596, 46.7557027812565], [-85.173042, 46.763634], [-84.964652, 46.772845], [-85.028291, 46.675125], [-85.027374, 46.553756], [-84.969464, 46.47629], [-84.849767, 46.460245], [-84.678423, 46.487694], [-84.607945, 46.456747], [-84.493401, 46.440313], [-84.461827, 46.466566], [-84.420274, 46.501077], [-84.293016, 46.492803], [-84.193729, 46.53992], [-84.117925, 46.517619], [-84.125026, 46.470143], [-84.138906, 46.372221], [-84.097766, 46.256512], [-84.108089, 46.241238], [-84.114941, 46.174114], [-84.026536, 46.131648], [-83.974012, 46.081552], [-83.882303, 46.042065], [-83.815826, 46.108529], [-83.719791, 46.101031], [-83.598612, 46.090085], [-83.480639, 45.996164], [-83.526347, 45.918636], [-83.583052, 45.915919], [-83.65766, 45.945463], [-83.80104, 45.937582], [-83.910838, 45.965613], [-84.080071, 45.970822], [-84.1146065625188, 45.9679083747954], [-84.254952, 45.956068], [-84.376429, 45.931962], [-84.480436, 45.977764], [-84.567493, 45.947702], [-84.632855, 45.951007], [-84.734002, 45.907026], [-84.706383, 45.848658], [-84.792763, 45.858691], [-84.917484, 45.93067], [-85.003597, 46.00613], [-85.152027, 46.050725], [-85.266385, 46.065779], [-85.381394, 46.082044], [-85.540858, 46.079581], [-85.648581, 45.983695], [-85.697203, 45.960158], [-85.810442, 45.980087], [-85.8658399219427, 45.9475710731853], [-85.913769, 45.919439], [-86.072067, 45.965313], [-86.278007, 45.942057], [-86.349134, 45.83416], [-86.439661, 45.760669], [-86.4598805177494, 45.750226550596], [-86.54143, 45.70811], [-86.616972, 45.620581], [-86.636895, 45.542053], [-86.712328, 45.610939], [-86.705184, 45.690901], [-86.647319, 45.732618], [-86.773279, 45.811385], [-86.838746, 45.722307], [-86.964275, 45.672761], [-87.070442, 45.718779], [-87.172241, 45.661788], [-87.2534496287802, 45.5501155908891], [-87.288726, 45.501606], [-87.350852, 45.407743], [-87.465201, 45.273351], [-87.548964, 45.191591], [-87.590208, 45.095264], [-87.648191, 45.106368], [-87.695055, 45.150522], [-87.741805, 45.197051], [-87.71148, 45.245224], [-87.667423, 45.31636], [-87.657349, 45.368752], [-87.706767, 45.383827], [-87.750928, 45.355037], [-87.800464, 45.353608], [-87.863489, 45.35302], [-87.85683, 45.393106], [-87.847429, 45.444177], [-87.805773, 45.473139], [-87.804203, 45.524676], [-87.787292, 45.574906], [-87.777671, 45.609204], [-87.824676, 45.653211], [-87.781007, 45.673934], [-87.805076, 45.703556], [-87.8330494680353, 45.7227525753469], [-87.879812, 45.754843], [-87.96697, 45.764021], [-87.995876, 45.795435], [-88.048514, 45.782549], [-88.057010465949, 45.7849770301437], [-88.105518, 45.798839], [-88.135067, 45.821694], [-88.073944, 45.875593], [-88.115346, 45.922211], [-88.1168565373761, 45.9228112422627], [-88.178008, 45.947111], [-88.246307, 45.962983], [-88.30952, 45.959369], [-88.380183, 45.991654], [-88.409864, 45.979688], [-88.526673, 46.020822], [-88.59386, 46.015132], [-88.613063, 45.990627], [-88.65776, 45.989287], [-88.679132, 46.013538], [-88.6832322084994, 46.0144656703203], [-88.739994, 46.027308], [-88.811948, 46.021609], [-88.9327684510096, 46.072107163776], [-88.991217028396, 46.096536354436], [-89.09163, 46.138505], [-89.638416, 46.243804], [-89.9291256256648, 46.2999157284081], [-90.120489, 46.336852], [-90.158241, 46.420485], [-90.214866, 46.499947], [-90.285707, 46.518846], [-90.331887, 46.553278], [-90.387228, 46.533663], [-90.418136, 46.566094]]], [[[-75.773786, 39.7222], [-75.753228, 39.757989], [-75.717059, 39.792325], [-75.662846, 39.821425], [-75.5943169052201, 39.8345949730913], [-75.5925626443241, 39.8349321082726], [-75.5796477422344, 39.8374141038914], [-75.570433, 39.839185], [-75.481207, 39.829191], [-75.415062, 39.801919], [-75.459439, 39.765813], [-75.47764, 39.715013], [-75.509742, 39.686113], [-75.535144, 39.647212], [-75.559446, 39.629812], [-75.543965, 39.596], [-75.512732, 39.578], [-75.527676, 39.535278], [-75.528088, 39.498114], [-75.593068, 39.479186], [-75.57183, 39.438897], [-75.521682, 39.387871], [-75.5056428576184, 39.3703942225828], [-75.469324, 39.33082], [-75.408376, 39.264698], [-75.39479, 39.188354], [-75.407473, 39.133706], [-75.396277, 39.057884], [-75.34089, 39.01996], [-75.3066521095097, 38.9476601633284], [-75.302552, 38.939002], [-75.304078, 38.91316], [-75.232029, 38.844254], [-75.159022, 38.790193], [-75.113331, 38.782998], [-75.089473, 38.797198], [-75.071805, 38.696497], [-75.053973, 38.536273], [-75.048939, 38.451263], [-75.185455, 38.451012], [-75.3412873203482, 38.4524365259555], [-75.479283, 38.453698], [-75.693721, 38.460128], [-75.700382, 38.542743], [-75.701777515245, 38.5607669290786], [-75.707551, 38.635335], [-75.707555026429, 38.6353853550599], [-75.7231026933327, 38.8298265565277], [-75.7481548142541, 39.1431317309597], [-75.7564352155685, 39.2466875371253], [-75.7604414164505, 39.2967896211001], [-75.766895, 39.377499], [-75.7669046067092, 39.3776515935512], [-75.788596, 39.722199], [-75.773786, 39.7222]]], [[[-75.559446, 39.629812], [-75.535144, 39.647212], [-75.509742, 39.686113], [-75.47764, 39.715013], [-75.459439, 39.765813], [-75.415062, 39.801919], [-75.4104924776371, 39.8046722343221], [-75.341765, 39.846082], [-75.293376, 39.848782], [-75.2572734800476, 39.8549350617895], [-75.221025, 39.861113], [-75.211394924927, 39.8664092625395], [-75.183023, 39.882013], [-75.1407939068226, 39.8941020495155], [-75.13342, 39.896213], [-75.1342656240616, 39.9149266604838], [-75.135548101392, 39.9433078838052], [-75.13572, 39.947112], [-75.11922, 39.965412], [-75.0607519886792, 39.9917310058102], [-75.059017, 39.992512], [-74.989914, 40.037311], [-74.9731758798159, 40.046332290708], [-74.932211, 40.068411], [-74.863809, 40.08221], [-74.825907, 40.12391], [-74.769488, 40.129145], [-74.7233792971515, 40.1528955462317], [-74.721604, 40.15381], [-74.7484976572578, 40.184908614104], [-74.760605, 40.198909], [-74.823907, 40.241508], [-74.856508, 40.277407], [-74.90331, 40.315607], [-74.9281105690914, 40.3398284476893], [-74.946006, 40.357306], [-74.969597, 40.39977], [-75.024775, 40.403455], [-75.056102, 40.416066], [-75.070568, 40.455165], [-75.062227, 40.481391], [-75.078503, 40.548296], [-75.136748, 40.575731], [-75.186737, 40.569406], [-75.1881998781252, 40.5926133666486], [-75.1892364013559, 40.6090569611221], [-75.191059, 40.637971], [-75.192612, 40.715874], [-75.177477, 40.764225], [-75.108505, 40.791094], [-75.090962, 40.849187], [-75.065438, 40.885682], [-75.09772, 40.926679], [-75.1232539442085, 40.9653055343877], [-75.133086, 40.980179], [-75.070532, 41.01862], [-75.015271, 41.061215], [-74.9923859951822, 41.0930282469934], [-74.9830420742478, 41.1060175588568], [-74.979873, 41.110423], [-74.905256, 41.155668], [-74.8793333807378, 41.2050477441029], [-74.867405, 41.22777], [-74.815703, 41.296151], [-74.760325, 41.340325], [-74.694914, 41.357423], [-74.457584, 41.248225], [-74.3670382614474, 41.2042114724438], [-74.301994, 41.172594], [-74.2344924405545, 41.1428915543507], [-74.234473, 41.142883], [-74.2116176431986, 41.1329813635363], [-74.041054, 41.059088], [-73.893979, 40.997197], [-73.90728, 40.951498], [-73.9204843942222, 40.9185742549309], [-73.9348922281485, 40.8826498616415], [-73.938081, 40.874699], [-73.9450156392176, 40.8622172966197], [-73.9532150549994, 40.8474591134658], [-73.9649687823477, 40.8263035012169], [-73.9654070011692, 40.8255147482372], [-73.968082, 40.8207], [-73.9712111786194, 40.8163111938137], [-73.9845857755727, 40.7975527523865], [-74.013784, 40.756601], [-74.0195090269308, 40.7453085470169], [-74.0294745361997, 40.7256518630867], [-74.0470400238482, 40.6910044377047], [-74.047313, 40.690466], [-74.067720330319, 40.6703805942445], [-74.0710905992628, 40.6670634911162], [-74.086806, 40.651596], [-74.1601467831532, 40.6460765164448], [-74.170611, 40.645289], [-74.2001860628537, 40.6318401804838], [-74.202247, 40.630903], [-74.2036686021776, 40.5932053855576], [-74.203688, 40.592691], [-74.216839, 40.558618], [-74.249211, 40.545064], [-74.260611, 40.502436], [-74.261889, 40.464706], [-74.2246524660147, 40.4486624894865], [-74.206188, 40.440707], [-74.157094, 40.447571], [-74.108295, 40.443788], [-74.047884, 40.418908], [-74.019334, 40.471244], [-73.997943, 40.476668], [-73.976982, 40.408508], [-73.971381, 40.34801], [-73.981681, 40.279411], [-74.007636380237, 40.1956061612582], [-74.030181, 40.122814], [-74.0349623822635, 40.1025843059482], [-74.064135, 39.979157], [-74.076911808935, 39.9127335742937], [-74.077247, 39.910991], [-74.090945, 39.799978], [-74.0924096209922, 39.7938665766277], [-74.101443, 39.756173], [-74.190974, 39.625118], [-74.291585, 39.507705], [-74.3006975948254, 39.4818057455425], [-74.304343, 39.471445], [-74.36699, 39.402017], [-74.412692, 39.360816], [-74.521797, 39.313816], [-74.5407878555825, 39.3000254911844], [-74.581008, 39.270819], [-74.646595, 39.212002], [-74.67143, 39.179802], [-74.714341, 39.119804], [-74.705876, 39.102937], [-74.778777, 39.023073], [-74.807917, 38.985948], [-74.864458, 38.94041], [-74.933571, 38.928519], [-74.967274, 38.933413], [-74.955363, 39.001262], [-74.903664, 39.087437], [-74.885914, 39.143627], [-74.905181, 39.174945], [-74.9151558055627, 39.1766975035188], [-74.998002, 39.191253], [-75.048487, 39.215222], [-75.090794, 39.210802], [-75.136667, 39.181883], [-75.166667, 39.222577], [-75.21251, 39.262755], [-75.244357, 39.2857], [-75.285333, 39.292212], [-75.326754, 39.332473], [-75.355558, 39.347823], [-75.399304, 39.37949], [-75.4171070774881, 39.3889106867137], [-75.442393, 39.402291], [-75.465212, 39.43893], [-75.536431, 39.460559], [-75.528088, 39.498114], [-75.527676, 39.535278], [-75.512732, 39.578], [-75.543965, 39.596], [-75.559446, 39.629812]]]]}}]}